<?xml version="1.0" encoding="UTF-8"?>
<gpx xmlns:xsi="http://www.w3.org/2001/XMLSchema-instance" xsi:schemaLocation="http://www.topografix.com/GPX/1/1 http://www.topografix.com/GPX/1/1/gpx.xsd" creator="StravaGPX" version="1.1" xmlns="http://www.topografix.com/GPX/1/1">
 <metadata>
  <time>2025-08-17T06:31:21Z</time>
 </metadata>
 <trk>
  <name>午後騎乘</name>
  <type>cycling</type>
  <trkseg>
   <trkpt lat="25.0257890" lon="121.4271180">
    <ele>16.4</ele>
    <time>2025-08-17T06:31:21Z</time>
   </trkpt>
   <trkpt lat="25.0257890" lon="121.4271180">
    <ele>16.4</ele>
    <time>2025-08-17T06:31:22Z</time>
   </trkpt>
   <trkpt lat="25.0257840" lon="121.4270970">
    <ele>16.2</ele>
    <time>2025-08-17T06:31:23Z</time>
   </trkpt>
   <trkpt lat="25.0257870" lon="121.4270810">
    <ele>16.0</ele>
    <time>2025-08-17T06:31:24Z</time>
   </trkpt>
   <trkpt lat="25.0257880" lon="121.4270850">
    <ele>15.9</ele>
    <time>2025-08-17T06:31:25Z</time>
   </trkpt>
   <trkpt lat="25.0257890" lon="121.4270930">
    <ele>15.8</ele>
    <time>2025-08-17T06:31:26Z</time>
   </trkpt>
   <trkpt lat="25.0257900" lon="121.4271010">
    <ele>15.7</ele>
    <time>2025-08-17T06:31:27Z</time>
   </trkpt>
   <trkpt lat="25.0257900" lon="121.4271090">
    <ele>15.6</ele>
    <time>2025-08-17T06:31:28Z</time>
   </trkpt>
   <trkpt lat="25.0257910" lon="121.4271170">
    <ele>15.5</ele>
    <time>2025-08-17T06:31:29Z</time>
   </trkpt>
   <trkpt lat="25.0257920" lon="121.4271250">
    <ele>15.4</ele>
    <time>2025-08-17T06:31:30Z</time>
   </trkpt>
   <trkpt lat="25.0257930" lon="121.4271330">
    <ele>15.3</ele>
    <time>2025-08-17T06:31:31Z</time>
   </trkpt>
   <trkpt lat="25.0257940" lon="121.4271420">
    <ele>15.2</ele>
    <time>2025-08-17T06:31:32Z</time>
   </trkpt>
   <trkpt lat="25.0257950" lon="121.4271500">
    <ele>15.1</ele>
    <time>2025-08-17T06:31:33Z</time>
   </trkpt>
   <trkpt lat="25.0257960" lon="121.4271580">
    <ele>15.0</ele>
    <time>2025-08-17T06:32:47Z</time>
   </trkpt>
   <trkpt lat="25.0257960" lon="121.4271660">
    <ele>14.9</ele>
    <time>2025-08-17T06:32:48Z</time>
   </trkpt>
   <trkpt lat="25.0257970" lon="121.4271740">
    <ele>14.8</ele>
    <time>2025-08-17T06:32:49Z</time>
   </trkpt>
   <trkpt lat="25.0257980" lon="121.4271820">
    <ele>14.7</ele>
    <time>2025-08-17T06:32:50Z</time>
   </trkpt>
   <trkpt lat="25.0257990" lon="121.4271900">
    <ele>14.6</ele>
    <time>2025-08-17T06:32:51Z</time>
   </trkpt>
   <trkpt lat="25.0258120" lon="121.4272080">
    <ele>14.3</ele>
    <time>2025-08-17T06:32:52Z</time>
   </trkpt>
   <trkpt lat="25.0258160" lon="121.4272330">
    <ele>14.0</ele>
    <time>2025-08-17T06:32:53Z</time>
   </trkpt>
   <trkpt lat="25.0258190" lon="121.4272570">
    <ele>13.7</ele>
    <time>2025-08-17T06:32:54Z</time>
   </trkpt>
   <trkpt lat="25.0258220" lon="121.4272810">
    <ele>14.0</ele>
    <time>2025-08-17T06:32:55Z</time>
   </trkpt>
   <trkpt lat="25.0258260" lon="121.4273060">
    <ele>14.4</ele>
    <time>2025-08-17T06:32:56Z</time>
   </trkpt>
   <trkpt lat="25.0258290" lon="121.4273300">
    <ele>14.7</ele>
    <time>2025-08-17T06:33:28Z</time>
   </trkpt>
   <trkpt lat="25.0258320" lon="121.4273540">
    <ele>15.1</ele>
    <time>2025-08-17T06:33:29Z</time>
   </trkpt>
   <trkpt lat="25.0258360" lon="121.4273790">
    <ele>15.4</ele>
    <time>2025-08-17T06:33:30Z</time>
   </trkpt>
   <trkpt lat="25.0258390" lon="121.4274030">
    <ele>15.8</ele>
    <time>2025-08-17T06:33:31Z</time>
   </trkpt>
   <trkpt lat="25.0258410" lon="121.4274160">
    <ele>15.9</ele>
    <time>2025-08-17T06:33:32Z</time>
   </trkpt>
   <trkpt lat="25.0258460" lon="121.4274270">
    <ele>16.1</ele>
    <time>2025-08-17T06:33:33Z</time>
   </trkpt>
   <trkpt lat="25.0258510" lon="121.4274370">
    <ele>16.3</ele>
    <time>2025-08-17T06:33:34Z</time>
   </trkpt>
   <trkpt lat="25.0258560" lon="121.4274480">
    <ele>16.4</ele>
    <time>2025-08-17T06:33:35Z</time>
   </trkpt>
   <trkpt lat="25.0258610" lon="121.4274580">
    <ele>16.6</ele>
    <time>2025-08-17T06:33:36Z</time>
   </trkpt>
   <trkpt lat="25.0258660" lon="121.4274690">
    <ele>16.8</ele>
    <time>2025-08-17T06:33:37Z</time>
   </trkpt>
   <trkpt lat="25.0258710" lon="121.4274790">
    <ele>16.9</ele>
    <time>2025-08-17T06:33:38Z</time>
   </trkpt>
   <trkpt lat="25.0258760" lon="121.4274900">
    <ele>17.1</ele>
    <time>2025-08-17T06:34:16Z</time>
   </trkpt>
   <trkpt lat="25.0258810" lon="121.4275000">
    <ele>17.3</ele>
    <time>2025-08-17T06:34:17Z</time>
   </trkpt>
   <trkpt lat="25.0258860" lon="121.4275110">
    <ele>17.4</ele>
    <time>2025-08-17T06:34:18Z</time>
   </trkpt>
   <trkpt lat="25.0258910" lon="121.4275210">
    <ele>17.6</ele>
    <time>2025-08-17T06:34:19Z</time>
   </trkpt>
   <trkpt lat="25.0258960" lon="121.4275320">
    <ele>17.7</ele>
    <time>2025-08-17T06:34:20Z</time>
   </trkpt>
   <trkpt lat="25.0258990" lon="121.4275410">
    <ele>17.9</ele>
    <time>2025-08-17T06:34:21Z</time>
   </trkpt>
   <trkpt lat="25.0259010" lon="121.4275450">
    <ele>17.9</ele>
    <time>2025-08-17T06:34:22Z</time>
   </trkpt>
   <trkpt lat="25.0259020" lon="121.4275500">
    <ele>18.0</ele>
    <time>2025-08-17T06:34:23Z</time>
   </trkpt>
   <trkpt lat="25.0259040" lon="121.4275550">
    <ele>18.1</ele>
    <time>2025-08-17T06:34:24Z</time>
   </trkpt>
   <trkpt lat="25.0259060" lon="121.4275600">
    <ele>18.2</ele>
    <time>2025-08-17T06:34:25Z</time>
   </trkpt>
   <trkpt lat="25.0259080" lon="121.4275640">
    <ele>18.2</ele>
    <time>2025-08-17T06:34:26Z</time>
   </trkpt>
   <trkpt lat="25.0259090" lon="121.4275690">
    <ele>18.3</ele>
    <time>2025-08-17T06:34:50Z</time>
   </trkpt>
   <trkpt lat="25.0259110" lon="121.4275740">
    <ele>18.4</ele>
    <time>2025-08-17T06:34:51Z</time>
   </trkpt>
   <trkpt lat="25.0259130" lon="121.4275790">
    <ele>18.4</ele>
    <time>2025-08-17T06:34:52Z</time>
   </trkpt>
   <trkpt lat="25.0259150" lon="121.4275830">
    <ele>18.5</ele>
    <time>2025-08-17T06:34:53Z</time>
   </trkpt>
   <trkpt lat="25.0259160" lon="121.4275880">
    <ele>18.6</ele>
    <time>2025-08-17T06:34:54Z</time>
   </trkpt>
   <trkpt lat="25.0259180" lon="121.4275930">
    <ele>18.6</ele>
    <time>2025-08-17T06:34:55Z</time>
   </trkpt>
   <trkpt lat="25.0259200" lon="121.4275980">
    <ele>18.7</ele>
    <time>2025-08-17T06:34:56Z</time>
   </trkpt>
   <trkpt lat="25.0259220" lon="121.4276020">
    <ele>18.8</ele>
    <time>2025-08-17T06:34:57Z</time>
   </trkpt>
   <trkpt lat="25.0259230" lon="121.4276070">
    <ele>18.9</ele>
    <time>2025-08-17T06:34:58Z</time>
   </trkpt>
   <trkpt lat="25.0259250" lon="121.4276120">
    <ele>18.9</ele>
    <time>2025-08-17T06:34:59Z</time>
   </trkpt>
   <trkpt lat="25.0259250" lon="121.4276240">
    <ele>19.1</ele>
    <time>2025-08-17T06:35:00Z</time>
   </trkpt>
   <trkpt lat="25.0259250" lon="121.4276360">
    <ele>19.3</ele>
    <time>2025-08-17T06:35:01Z</time>
   </trkpt>
   <trkpt lat="25.0259250" lon="121.4276470">
    <ele>19.4</ele>
    <time>2025-08-17T06:35:12Z</time>
   </trkpt>
   <trkpt lat="25.0259250" lon="121.4276590">
    <ele>19.6</ele>
    <time>2025-08-17T06:35:13Z</time>
   </trkpt>
   <trkpt lat="25.0259250" lon="121.4276710">
    <ele>19.7</ele>
    <time>2025-08-17T06:35:14Z</time>
   </trkpt>
   <trkpt lat="25.0259250" lon="121.4276830">
    <ele>19.9</ele>
    <time>2025-08-17T06:35:15Z</time>
   </trkpt>
   <trkpt lat="25.0259300" lon="121.4276940">
    <ele>20.1</ele>
    <time>2025-08-17T06:35:16Z</time>
   </trkpt>
   <trkpt lat="25.0259370" lon="121.4276990">
    <ele>20.2</ele>
    <time>2025-08-17T06:35:17Z</time>
   </trkpt>
   <trkpt lat="25.0259470" lon="121.4276950">
    <ele>20.4</ele>
    <time>2025-08-17T06:35:18Z</time>
   </trkpt>
   <trkpt lat="25.0259610" lon="121.4276900">
    <ele>20.6</ele>
    <time>2025-08-17T06:35:19Z</time>
   </trkpt>
   <trkpt lat="25.0259610" lon="121.4277040">
    <ele>20.8</ele>
    <time>2025-08-17T06:35:20Z</time>
   </trkpt>
   <trkpt lat="25.0259520" lon="121.4277150">
    <ele>21.0</ele>
    <time>2025-08-17T06:35:21Z</time>
   </trkpt>
   <trkpt lat="25.0259610" lon="121.4277130">
    <ele>21.1</ele>
    <time>2025-08-17T06:35:22Z</time>
   </trkpt>
   <trkpt lat="25.0259600" lon="121.4277200">
    <ele>21.2</ele>
    <time>2025-08-17T06:35:23Z</time>
   </trkpt>
   <trkpt lat="25.0259680" lon="121.4277280">
    <ele>21.3</ele>
    <time>2025-08-17T06:35:24Z</time>
   </trkpt>
   <trkpt lat="25.0259760" lon="121.4277360">
    <ele>21.5</ele>
    <time>2025-08-17T06:35:25Z</time>
   </trkpt>
   <trkpt lat="25.0259830" lon="121.4277450">
    <ele>21.6</ele>
    <time>2025-08-17T06:35:26Z</time>
   </trkpt>
   <trkpt lat="25.0259910" lon="121.4277540">
    <ele>21.8</ele>
    <time>2025-08-17T06:36:02Z</time>
   </trkpt>
   <trkpt lat="25.0259980" lon="121.4277630">
    <ele>21.9</ele>
    <time>2025-08-17T06:36:03Z</time>
   </trkpt>
   <trkpt lat="25.0260060" lon="121.4277710">
    <ele>22.1</ele>
    <time>2025-08-17T06:36:04Z</time>
   </trkpt>
   <trkpt lat="25.0260130" lon="121.4277800">
    <ele>22.2</ele>
    <time>2025-08-17T06:36:05Z</time>
   </trkpt>
   <trkpt lat="25.0260170" lon="121.4277840">
    <ele>22.3</ele>
    <time>2025-08-17T06:36:06Z</time>
   </trkpt>
   <trkpt lat="25.0260190" lon="121.4277940">
    <ele>22.4</ele>
    <time>2025-08-17T06:36:07Z</time>
   </trkpt>
   <trkpt lat="25.0260130" lon="121.4278020">
    <ele>22.5</ele>
    <time>2025-08-17T06:36:08Z</time>
   </trkpt>
   <trkpt lat="25.0260120" lon="121.4278180">
    <ele>22.6</ele>
    <time>2025-08-17T06:36:09Z</time>
   </trkpt>
   <trkpt lat="25.0260080" lon="121.4278270">
    <ele>22.7</ele>
    <time>2025-08-17T06:36:10Z</time>
   </trkpt>
   <trkpt lat="25.0260180" lon="121.4278280">
    <ele>22.8</ele>
    <time>2025-08-17T06:36:11Z</time>
   </trkpt>
   <trkpt lat="25.0260230" lon="121.4278400">
    <ele>23.0</ele>
    <time>2025-08-17T06:36:12Z</time>
   </trkpt>
   <trkpt lat="25.0260350" lon="121.4278460">
    <ele>23.1</ele>
    <time>2025-08-17T06:36:13Z</time>
   </trkpt>
   <trkpt lat="25.0260330" lon="121.4278520">
    <ele>23.1</ele>
    <time>2025-08-17T06:36:14Z</time>
   </trkpt>
   <trkpt lat="25.0260330" lon="121.4278540">
    <ele>23.1</ele>
    <time>2025-08-17T06:36:15Z</time>
   </trkpt>
   <trkpt lat="25.0260270" lon="121.4278590">
    <ele>23.0</ele>
    <time>2025-08-17T06:36:16Z</time>
   </trkpt>
   <trkpt lat="25.0260250" lon="121.4278580">
    <ele>23.0</ele>
    <time>2025-08-17T06:36:17Z</time>
   </trkpt>
   <trkpt lat="25.0260250" lon="121.4278560">
    <ele>23.0</ele>
    <time>2025-08-17T06:36:18Z</time>
   </trkpt>
   <trkpt lat="25.0260250" lon="121.4278560">
    <ele>23.0</ele>
    <time>2025-08-17T06:36:19Z</time>
   </trkpt>
   <trkpt lat="25.0260250" lon="121.4278560">
    <ele>23.0</ele>
    <time>2025-08-17T06:36:20Z</time>
   </trkpt>
   <trkpt lat="25.0260250" lon="121.4278560">
    <ele>23.0</ele>
    <time>2025-08-17T06:36:21Z</time>
   </trkpt>
   <trkpt lat="25.0259910" lon="121.4278810">
    <ele>22.7</ele>
    <time>2025-08-17T06:36:30Z</time>
   </trkpt>
   <trkpt lat="25.0260030" lon="121.4278540">
    <ele>22.6</ele>
    <time>2025-08-17T06:36:31Z</time>
   </trkpt>
   <trkpt lat="25.0260050" lon="121.4278530">
    <ele>22.6</ele>
    <time>2025-08-17T06:36:32Z</time>
   </trkpt>
   <trkpt lat="25.0259990" lon="121.4278810">
    <ele>22.4</ele>
    <time>2025-08-17T06:36:33Z</time>
   </trkpt>
   <trkpt lat="25.0260060" lon="121.4278720">
    <ele>22.3</ele>
    <time>2025-08-17T06:36:34Z</time>
   </trkpt>
   <trkpt lat="25.0260190" lon="121.4278620">
    <ele>22.2</ele>
    <time>2025-08-17T06:36:35Z</time>
   </trkpt>
   <trkpt lat="25.0260310" lon="121.4278560">
    <ele>22.2</ele>
    <time>2025-08-17T06:36:36Z</time>
   </trkpt>
   <trkpt lat="25.0260400" lon="121.4278530">
    <ele>22.1</ele>
    <time>2025-08-17T06:36:37Z</time>
   </trkpt>
   <trkpt lat="25.0260450" lon="121.4278560">
    <ele>22.1</ele>
    <time>2025-08-17T06:36:38Z</time>
   </trkpt>
   <trkpt lat="25.0260610" lon="121.4278600">
    <ele>22.0</ele>
    <time>2025-08-17T06:36:39Z</time>
   </trkpt>
   <trkpt lat="25.0260590" lon="121.4278750">
    <ele>21.9</ele>
    <time>2025-08-17T06:36:40Z</time>
   </trkpt>
   <trkpt lat="25.0260510" lon="121.4278910">
    <ele>21.8</ele>
    <time>2025-08-17T06:36:41Z</time>
   </trkpt>
   <trkpt lat="25.0260420" lon="121.4279060">
    <ele>21.7</ele>
    <time>2025-08-17T06:36:42Z</time>
   </trkpt>
   <trkpt lat="25.0260330" lon="121.4279220">
    <ele>21.6</ele>
    <time>2025-08-17T06:36:43Z</time>
   </trkpt>
   <trkpt lat="25.0260240" lon="121.4279370">
    <ele>21.5</ele>
    <time>2025-08-17T06:37:06Z</time>
   </trkpt>
   <trkpt lat="25.0260160" lon="121.4279530">
    <ele>21.4</ele>
    <time>2025-08-17T06:37:07Z</time>
   </trkpt>
   <trkpt lat="25.0260070" lon="121.4279680">
    <ele>21.3</ele>
    <time>2025-08-17T06:37:08Z</time>
   </trkpt>
   <trkpt lat="25.0259930" lon="121.4279720">
    <ele>21.2</ele>
    <time>2025-08-17T06:37:09Z</time>
   </trkpt>
   <trkpt lat="25.0259830" lon="121.4279840">
    <ele>21.1</ele>
    <time>2025-08-17T06:37:10Z</time>
   </trkpt>
   <trkpt lat="25.0259620" lon="121.4279950">
    <ele>20.9</ele>
    <time>2025-08-17T06:37:11Z</time>
   </trkpt>
   <trkpt lat="25.0259530" lon="121.4279960">
    <ele>20.9</ele>
    <time>2025-08-17T06:37:12Z</time>
   </trkpt>
   <trkpt lat="25.0259440" lon="121.4279980">
    <ele>20.8</ele>
    <time>2025-08-17T06:37:13Z</time>
   </trkpt>
   <trkpt lat="25.0259370" lon="121.4280100">
    <ele>20.6</ele>
    <time>2025-08-17T06:37:14Z</time>
   </trkpt>
   <trkpt lat="25.0259340" lon="121.4280060">
    <ele>20.7</ele>
    <time>2025-08-17T06:37:15Z</time>
   </trkpt>
   <trkpt lat="25.0259380" lon="121.4279910">
    <ele>21.0</ele>
    <time>2025-08-17T06:37:16Z</time>
   </trkpt>
   <trkpt lat="25.0259450" lon="121.4279990">
    <ele>21.1</ele>
    <time>2025-08-17T06:37:17Z</time>
   </trkpt>
   <trkpt lat="25.0259530" lon="121.4279950">
    <ele>21.3</ele>
    <time>2025-08-17T06:37:18Z</time>
   </trkpt>
   <trkpt lat="25.0259660" lon="121.4279870">
    <ele>21.5</ele>
    <time>2025-08-17T06:37:19Z</time>
   </trkpt>
   <trkpt lat="25.0259690" lon="121.4279800">
    <ele>21.7</ele>
    <time>2025-08-17T06:37:20Z</time>
   </trkpt>
   <trkpt lat="25.0259790" lon="121.4279820">
    <ele>21.8</ele>
    <time>2025-08-17T06:37:21Z</time>
   </trkpt>
   <trkpt lat="25.0259890" lon="121.4279810">
    <ele>22.0</ele>
    <time>2025-08-17T06:37:22Z</time>
   </trkpt>
   <trkpt lat="25.0260050" lon="121.4279700">
    <ele>22.3</ele>
    <time>2025-08-17T06:37:23Z</time>
   </trkpt>
   <trkpt lat="25.0260980" lon="121.4279150">
    <ele>23.9</ele>
    <time>2025-08-17T06:37:30Z</time>
   </trkpt>
   <trkpt lat="25.0261070" lon="121.4279140">
    <ele>24.0</ele>
    <time>2025-08-17T06:37:31Z</time>
   </trkpt>
   <trkpt lat="25.0261150" lon="121.4279140">
    <ele>24.1</ele>
    <time>2025-08-17T06:37:32Z</time>
   </trkpt>
   <trkpt lat="25.0261240" lon="121.4279130">
    <ele>24.2</ele>
    <time>2025-08-17T06:37:33Z</time>
   </trkpt>
   <trkpt lat="25.0261380" lon="121.4279050">
    <ele>24.4</ele>
    <time>2025-08-17T06:37:34Z</time>
   </trkpt>
   <trkpt lat="25.0261490" lon="121.4279030">
    <ele>24.5</ele>
    <time>2025-08-17T06:37:35Z</time>
   </trkpt>
   <trkpt lat="25.0261580" lon="121.4279000">
    <ele>24.6</ele>
    <time>2025-08-17T06:37:36Z</time>
   </trkpt>
   <trkpt lat="25.0261630" lon="121.4279210">
    <ele>24.8</ele>
    <time>2025-08-17T06:37:37Z</time>
   </trkpt>
   <trkpt lat="25.0261690" lon="121.4279190">
    <ele>24.9</ele>
    <time>2025-08-17T06:37:38Z</time>
   </trkpt>
   <trkpt lat="25.0261760" lon="121.4279230">
    <ele>25.0</ele>
    <time>2025-08-17T06:37:39Z</time>
   </trkpt>
   <trkpt lat="25.0261880" lon="121.4279290">
    <ele>25.1</ele>
    <time>2025-08-17T06:37:40Z</time>
   </trkpt>
   <trkpt lat="25.0261920" lon="121.4279350">
    <ele>25.2</ele>
    <time>2025-08-17T06:37:41Z</time>
   </trkpt>
   <trkpt lat="25.0262080" lon="121.4279210">
    <ele>25.4</ele>
    <time>2025-08-17T06:37:42Z</time>
   </trkpt>
   <trkpt lat="25.0262180" lon="121.4279080">
    <ele>25.6</ele>
    <time>2025-08-17T06:37:43Z</time>
   </trkpt>
   <trkpt lat="25.0262260" lon="121.4279020">
    <ele>25.7</ele>
    <time>2025-08-17T06:37:44Z</time>
   </trkpt>
   <trkpt lat="25.0262310" lon="121.4278950">
    <ele>25.8</ele>
    <time>2025-08-17T06:37:45Z</time>
   </trkpt>
   <trkpt lat="25.0262350" lon="121.4278900">
    <ele>25.8</ele>
    <time>2025-08-17T06:37:46Z</time>
   </trkpt>
   <trkpt lat="25.0262390" lon="121.4278830">
    <ele>25.9</ele>
    <time>2025-08-17T06:37:47Z</time>
   </trkpt>
   <trkpt lat="25.0262460" lon="121.4278850">
    <ele>25.9</ele>
    <time>2025-08-17T06:37:48Z</time>
   </trkpt>
   <trkpt lat="25.0262490" lon="121.4278820">
    <ele>25.8</ele>
    <time>2025-08-17T06:37:49Z</time>
   </trkpt>
   <trkpt lat="25.0262500" lon="121.4279080">
    <ele>25.5</ele>
    <time>2025-08-17T06:37:50Z</time>
   </trkpt>
   <trkpt lat="25.0262450" lon="121.4279120">
    <ele>25.4</ele>
    <time>2025-08-17T06:37:51Z</time>
   </trkpt>
   <trkpt lat="25.0262460" lon="121.4279140">
    <ele>25.4</ele>
    <time>2025-08-17T06:37:52Z</time>
   </trkpt>
   <trkpt lat="25.0262460" lon="121.4279140">
    <ele>25.4</ele>
    <time>2025-08-17T06:37:53Z</time>
   </trkpt>
   <trkpt lat="25.0262590" lon="121.4279190">
    <ele>25.2</ele>
    <time>2025-08-17T06:37:54Z</time>
   </trkpt>
   <trkpt lat="25.0262800" lon="121.4279180">
    <ele>24.9</ele>
    <time>2025-08-17T06:37:55Z</time>
   </trkpt>
   <trkpt lat="25.0263000" lon="121.4279140">
    <ele>24.6</ele>
    <time>2025-08-17T06:38:01Z</time>
   </trkpt>
   <trkpt lat="25.0263210" lon="121.4279090">
    <ele>24.3</ele>
    <time>2025-08-17T06:38:02Z</time>
   </trkpt>
   <trkpt lat="25.0263410" lon="121.4279040">
    <ele>24.0</ele>
    <time>2025-08-17T06:38:03Z</time>
   </trkpt>
   <trkpt lat="25.0263620" lon="121.4278920">
    <ele>23.6</ele>
    <time>2025-08-17T06:38:04Z</time>
   </trkpt>
   <trkpt lat="25.0263690" lon="121.4278870">
    <ele>23.5</ele>
    <time>2025-08-17T06:38:05Z</time>
   </trkpt>
   <trkpt lat="25.0263760" lon="121.4278820">
    <ele>23.4</ele>
    <time>2025-08-17T06:38:06Z</time>
   </trkpt>
   <trkpt lat="25.0263850" lon="121.4278740">
    <ele>23.2</ele>
    <time>2025-08-17T06:38:07Z</time>
   </trkpt>
   <trkpt lat="25.0264010" lon="121.4278670">
    <ele>23.0</ele>
    <time>2025-08-17T06:38:08Z</time>
   </trkpt>
   <trkpt lat="25.0264240" lon="121.4278630">
    <ele>22.7</ele>
    <time>2025-08-17T06:38:09Z</time>
   </trkpt>
   <trkpt lat="25.0264340" lon="121.4278590">
    <ele>22.5</ele>
    <time>2025-08-17T06:38:10Z</time>
   </trkpt>
   <trkpt lat="25.0264440" lon="121.4278560">
    <ele>22.4</ele>
    <time>2025-08-17T06:38:11Z</time>
   </trkpt>
   <trkpt lat="25.0264550" lon="121.4278590">
    <ele>22.2</ele>
    <time>2025-08-17T06:38:12Z</time>
   </trkpt>
   <trkpt lat="25.0264620" lon="121.4278560">
    <ele>22.1</ele>
    <time>2025-08-17T06:38:13Z</time>
   </trkpt>
   <trkpt lat="25.0264690" lon="121.4278530">
    <ele>22.0</ele>
    <time>2025-08-17T06:38:14Z</time>
   </trkpt>
   <trkpt lat="25.0264770" lon="121.4278480">
    <ele>21.9</ele>
    <time>2025-08-17T06:38:15Z</time>
   </trkpt>
   <trkpt lat="25.0264780" lon="121.4278390">
    <ele>21.8</ele>
    <time>2025-08-17T06:38:16Z</time>
   </trkpt>
   <trkpt lat="25.0264780" lon="121.4278350">
    <ele>21.7</ele>
    <time>2025-08-17T06:38:17Z</time>
   </trkpt>
   <trkpt lat="25.0264790" lon="121.4278300">
    <ele>21.7</ele>
    <time>2025-08-17T06:38:18Z</time>
   </trkpt>
   <trkpt lat="25.0264800" lon="121.4278260">
    <ele>21.6</ele>
    <time>2025-08-17T06:38:19Z</time>
   </trkpt>
   <trkpt lat="25.0264810" lon="121.4278210">
    <ele>21.6</ele>
    <time>2025-08-17T06:38:20Z</time>
   </trkpt>
   <trkpt lat="25.0264810" lon="121.4278160">
    <ele>21.5</ele>
    <time>2025-08-17T06:38:21Z</time>
   </trkpt>
   <trkpt lat="25.0264820" lon="121.4278120">
    <ele>21.4</ele>
    <time>2025-08-17T06:38:22Z</time>
   </trkpt>
   <trkpt lat="25.0264830" lon="121.4278070">
    <ele>21.4</ele>
    <time>2025-08-17T06:38:23Z</time>
   </trkpt>
   <trkpt lat="25.0264830" lon="121.4278030">
    <ele>21.3</ele>
    <time>2025-08-17T06:38:39Z</time>
   </trkpt>
   <trkpt lat="25.0264840" lon="121.4277980">
    <ele>21.3</ele>
    <time>2025-08-17T06:38:40Z</time>
   </trkpt>
   <trkpt lat="25.0264990" lon="121.4277910">
    <ele>21.0</ele>
    <time>2025-08-17T06:38:41Z</time>
   </trkpt>
   <trkpt lat="25.0265040" lon="121.4277850">
    <ele>20.9</ele>
    <time>2025-08-17T06:38:42Z</time>
   </trkpt>
   <trkpt lat="25.0265100" lon="121.4277800">
    <ele>20.8</ele>
    <time>2025-08-17T06:38:43Z</time>
   </trkpt>
   <trkpt lat="25.0265370" lon="121.4277700">
    <ele>20.5</ele>
    <time>2025-08-17T06:38:44Z</time>
   </trkpt>
   <trkpt lat="25.0265500" lon="121.4277670">
    <ele>20.3</ele>
    <time>2025-08-17T06:38:45Z</time>
   </trkpt>
   <trkpt lat="25.0265650" lon="121.4277650">
    <ele>20.1</ele>
    <time>2025-08-17T06:38:46Z</time>
   </trkpt>
   <trkpt lat="25.0265730" lon="121.4277610">
    <ele>20.0</ele>
    <time>2025-08-17T06:38:47Z</time>
   </trkpt>
   <trkpt lat="25.0265770" lon="121.4277570">
    <ele>19.9</ele>
    <time>2025-08-17T06:38:48Z</time>
   </trkpt>
   <trkpt lat="25.0265760" lon="121.4277490">
    <ele>19.8</ele>
    <time>2025-08-17T06:38:49Z</time>
   </trkpt>
   <trkpt lat="25.0265760" lon="121.4277420">
    <ele>19.7</ele>
    <time>2025-08-17T06:38:50Z</time>
   </trkpt>
   <trkpt lat="25.0265750" lon="121.4277280">
    <ele>19.5</ele>
    <time>2025-08-17T06:38:51Z</time>
   </trkpt>
   <trkpt lat="25.0265700" lon="121.4277250">
    <ele>19.5</ele>
    <time>2025-08-17T06:38:52Z</time>
   </trkpt>
   <trkpt lat="25.0265750" lon="121.4277230">
    <ele>19.4</ele>
    <time>2025-08-17T06:38:53Z</time>
   </trkpt>
   <trkpt lat="25.0265770" lon="121.4277230">
    <ele>19.4</ele>
    <time>2025-08-17T06:38:54Z</time>
   </trkpt>
   <trkpt lat="25.0265800" lon="121.4277290">
    <ele>19.3</ele>
    <time>2025-08-17T06:38:56Z</time>
   </trkpt>
   <trkpt lat="25.0265790" lon="121.4277250">
    <ele>19.3</ele>
    <time>2025-08-17T06:38:57Z</time>
   </trkpt>
   <trkpt lat="25.0265910" lon="121.4277380">
    <ele>19.0</ele>
    <time>2025-08-17T06:38:58Z</time>
   </trkpt>
   <trkpt lat="25.0265910" lon="121.4277340">
    <ele>19.0</ele>
    <time>2025-08-17T06:38:59Z</time>
   </trkpt>
   <trkpt lat="25.0265860" lon="121.4277260">
    <ele>18.9</ele>
    <time>2025-08-17T06:39:00Z</time>
   </trkpt>
   <trkpt lat="25.0265870" lon="121.4277280">
    <ele>18.9</ele>
    <time>2025-08-17T06:39:01Z</time>
   </trkpt>
   <trkpt lat="25.0265930" lon="121.4277310">
    <ele>18.8</ele>
    <time>2025-08-17T06:39:02Z</time>
   </trkpt>
   <trkpt lat="25.0266000" lon="121.4277430">
    <ele>18.6</ele>
    <time>2025-08-17T06:39:03Z</time>
   </trkpt>
   <trkpt lat="25.0265890" lon="121.4277490">
    <ele>18.4</ele>
    <time>2025-08-17T06:39:04Z</time>
   </trkpt>
   <trkpt lat="25.0265810" lon="121.4277510">
    <ele>18.3</ele>
    <time>2025-08-17T06:39:05Z</time>
   </trkpt>
   <trkpt lat="25.0265720" lon="121.4277520">
    <ele>18.2</ele>
    <time>2025-08-17T06:39:06Z</time>
   </trkpt>
   <trkpt lat="25.0265640" lon="121.4277540">
    <ele>18.1</ele>
    <time>2025-08-17T06:39:07Z</time>
   </trkpt>
   <trkpt lat="25.0265560" lon="121.4277560">
    <ele>18.3</ele>
    <time>2025-08-17T06:39:08Z</time>
   </trkpt>
   <trkpt lat="25.0265480" lon="121.4277500">
    <ele>18.4</ele>
    <time>2025-08-17T06:39:09Z</time>
   </trkpt>
   <trkpt lat="25.0265480" lon="121.4277460">
    <ele>18.4</ele>
    <time>2025-08-17T06:39:10Z</time>
   </trkpt>
   <trkpt lat="25.0265350" lon="121.4277360">
    <ele>18.5</ele>
    <time>2025-08-17T06:39:11Z</time>
   </trkpt>
   <trkpt lat="25.0264930" lon="121.4277080">
    <ele>19.0</ele>
    <time>2025-08-17T06:39:12Z</time>
   </trkpt>
   <trkpt lat="25.0264700" lon="121.4277000">
    <ele>19.3</ele>
    <time>2025-08-17T06:39:13Z</time>
   </trkpt>
   <trkpt lat="25.0264380" lon="121.4276890">
    <ele>19.6</ele>
    <time>2025-08-17T06:39:14Z</time>
   </trkpt>
   <trkpt lat="25.0264460" lon="121.4276950">
    <ele>19.7</ele>
    <time>2025-08-17T06:39:15Z</time>
   </trkpt>
   <trkpt lat="25.0264480" lon="121.4277000">
    <ele>19.8</ele>
    <time>2025-08-17T06:39:16Z</time>
   </trkpt>
   <trkpt lat="25.0264490" lon="121.4277050">
    <ele>19.8</ele>
    <time>2025-08-17T06:39:17Z</time>
   </trkpt>
   <trkpt lat="25.0264500" lon="121.4277100">
    <ele>19.9</ele>
    <time>2025-08-17T06:39:18Z</time>
   </trkpt>
   <trkpt lat="25.0264520" lon="121.4277150">
    <ele>19.9</ele>
    <time>2025-08-17T06:39:19Z</time>
   </trkpt>
   <trkpt lat="25.0264530" lon="121.4277200">
    <ele>20.0</ele>
    <time>2025-08-17T06:39:20Z</time>
   </trkpt>
   <trkpt lat="25.0264540" lon="121.4277250">
    <ele>20.0</ele>
    <time>2025-08-17T06:39:21Z</time>
   </trkpt>
   <trkpt lat="25.0264560" lon="121.4277300">
    <ele>20.1</ele>
    <time>2025-08-17T06:39:22Z</time>
   </trkpt>
   <trkpt lat="25.0264570" lon="121.4277350">
    <ele>20.1</ele>
    <time>2025-08-17T06:39:23Z</time>
   </trkpt>
   <trkpt lat="25.0264400" lon="121.4277240">
    <ele>20.3</ele>
    <time>2025-08-17T06:39:24Z</time>
   </trkpt>
   <trkpt lat="25.0264330" lon="121.4277180">
    <ele>20.4</ele>
    <time>2025-08-17T06:39:25Z</time>
   </trkpt>
   <trkpt lat="25.0264040" lon="121.4276810">
    <ele>20.9</ele>
    <time>2025-08-17T06:39:26Z</time>
   </trkpt>
   <trkpt lat="25.0264400" lon="121.4277490">
    <ele>21.6</ele>
    <time>2025-08-17T06:39:27Z</time>
   </trkpt>
   <trkpt lat="25.0264400" lon="121.4277870">
    <ele>22.0</ele>
    <time>2025-08-17T06:39:28Z</time>
   </trkpt>
   <trkpt lat="25.0264350" lon="121.4278310">
    <ele>22.4</ele>
    <time>2025-08-17T06:39:29Z</time>
   </trkpt>
   <trkpt lat="25.0264290" lon="121.4278380">
    <ele>22.5</ele>
    <time>2025-08-17T06:39:30Z</time>
   </trkpt>
   <trkpt lat="25.0264250" lon="121.4278490">
    <ele>22.6</ele>
    <time>2025-08-17T06:39:31Z</time>
   </trkpt>
   <trkpt lat="25.0264250" lon="121.4278490">
    <ele>22.6</ele>
    <time>2025-08-17T06:39:32Z</time>
   </trkpt>
   <trkpt lat="25.0264250" lon="121.4278490">
    <ele>22.6</ele>
    <time>2025-08-17T06:39:33Z</time>
   </trkpt>
   <trkpt lat="25.0264250" lon="121.4278490">
    <ele>22.6</ele>
    <time>2025-08-17T06:39:34Z</time>
   </trkpt>
   <trkpt lat="25.0263630" lon="121.4277990">
    <ele>23.5</ele>
    <time>2025-08-17T06:40:30Z</time>
   </trkpt>
   <trkpt lat="25.0263560" lon="121.4278130">
    <ele>23.6</ele>
    <time>2025-08-17T06:40:31Z</time>
   </trkpt>
   <trkpt lat="25.0263310" lon="121.4278120">
    <ele>23.9</ele>
    <time>2025-08-17T06:40:32Z</time>
   </trkpt>
   <trkpt lat="25.0263000" lon="121.4278190">
    <ele>24.3</ele>
    <time>2025-08-17T06:40:33Z</time>
   </trkpt>
   <trkpt lat="25.0262840" lon="121.4278280">
    <ele>24.5</ele>
    <time>2025-08-17T06:40:34Z</time>
   </trkpt>
   <trkpt lat="25.0262640" lon="121.4278390">
    <ele>24.7</ele>
    <time>2025-08-17T06:40:35Z</time>
   </trkpt>
   <trkpt lat="25.0262590" lon="121.4278430">
    <ele>24.8</ele>
    <time>2025-08-17T06:40:36Z</time>
   </trkpt>
   <trkpt lat="25.0262540" lon="121.4278460">
    <ele>24.8</ele>
    <time>2025-08-17T06:40:37Z</time>
   </trkpt>
   <trkpt lat="25.0262490" lon="121.4278500">
    <ele>24.9</ele>
    <time>2025-08-17T06:40:38Z</time>
   </trkpt>
   <trkpt lat="25.0262300" lon="121.4278250">
    <ele>25.2</ele>
    <time>2025-08-17T06:40:39Z</time>
   </trkpt>
   <trkpt lat="25.0262190" lon="121.4278140">
    <ele>25.4</ele>
    <time>2025-08-17T06:40:40Z</time>
   </trkpt>
   <trkpt lat="25.0261960" lon="121.4278320">
    <ele>25.7</ele>
    <time>2025-08-17T06:40:41Z</time>
   </trkpt>
   <trkpt lat="25.0261850" lon="121.4278420">
    <ele>25.9</ele>
    <time>2025-08-17T06:40:42Z</time>
   </trkpt>
   <trkpt lat="25.0261900" lon="121.4278730">
    <ele>25.5</ele>
    <time>2025-08-17T06:40:43Z</time>
   </trkpt>
   <trkpt lat="25.0261920" lon="121.4278770">
    <ele>25.5</ele>
    <time>2025-08-17T06:40:44Z</time>
   </trkpt>
   <trkpt lat="25.0261940" lon="121.4278800">
    <ele>25.4</ele>
    <time>2025-08-17T06:40:45Z</time>
   </trkpt>
   <trkpt lat="25.0261970" lon="121.4278840">
    <ele>25.3</ele>
    <time>2025-08-17T06:40:46Z</time>
   </trkpt>
   <trkpt lat="25.0261990" lon="121.4278870">
    <ele>25.3</ele>
    <time>2025-08-17T06:40:47Z</time>
   </trkpt>
   <trkpt lat="25.0262010" lon="121.4278910">
    <ele>25.2</ele>
    <time>2025-08-17T06:40:48Z</time>
   </trkpt>
   <trkpt lat="25.0262030" lon="121.4278940">
    <ele>25.2</ele>
    <time>2025-08-17T06:40:49Z</time>
   </trkpt>
   <trkpt lat="25.0262100" lon="121.4279080">
    <ele>25.0</ele>
    <time>2025-08-17T06:40:50Z</time>
   </trkpt>
   <trkpt lat="25.0262160" lon="121.4279220">
    <ele>24.8</ele>
    <time>2025-08-17T06:40:51Z</time>
   </trkpt>
   <trkpt lat="25.0262230" lon="121.4279390">
    <ele>24.5</ele>
    <time>2025-08-17T06:40:52Z</time>
   </trkpt>
   <trkpt lat="25.0262250" lon="121.4279530">
    <ele>24.4</ele>
    <time>2025-08-17T06:40:53Z</time>
   </trkpt>
   <trkpt lat="25.0262260" lon="121.4279680">
    <ele>24.2</ele>
    <time>2025-08-17T06:40:54Z</time>
   </trkpt>
   <trkpt lat="25.0262490" lon="121.4280250">
    <ele>23.4</ele>
    <time>2025-08-17T06:40:55Z</time>
   </trkpt>
   <trkpt lat="25.0262690" lon="121.4280380">
    <ele>23.4</ele>
    <time>2025-08-17T06:40:56Z</time>
   </trkpt>
   <trkpt lat="25.0262740" lon="121.4280370">
    <ele>23.7</ele>
    <time>2025-08-17T06:40:57Z</time>
   </trkpt>
   <trkpt lat="25.0262790" lon="121.4280360">
    <ele>23.6</ele>
    <time>2025-08-17T06:40:58Z</time>
   </trkpt>
   <trkpt lat="25.0262840" lon="121.4280350">
    <ele>23.6</ele>
    <time>2025-08-17T06:40:59Z</time>
   </trkpt>
   <trkpt lat="25.0262830" lon="121.4280330">
    <ele>23.6</ele>
    <time>2025-08-17T06:41:00Z</time>
   </trkpt>
   <trkpt lat="25.0262950" lon="121.4280370">
    <ele>23.6</ele>
    <time>2025-08-17T06:41:01Z</time>
   </trkpt>
   <trkpt lat="25.0262990" lon="121.4280370">
    <ele>23.6</ele>
    <time>2025-08-17T06:41:02Z</time>
   </trkpt>
   <trkpt lat="25.0263050" lon="121.4280400">
    <ele>23.5</ele>
    <time>2025-08-17T06:41:03Z</time>
   </trkpt>
   <trkpt lat="25.0263060" lon="121.4280400">
    <ele>23.5</ele>
    <time>2025-08-17T06:41:04Z</time>
   </trkpt>
   <trkpt lat="25.0263190" lon="121.4280460">
    <ele>23.7</ele>
    <time>2025-08-17T06:41:05Z</time>
   </trkpt>
   <trkpt lat="25.0263640" lon="121.4280340">
    <ele>24.0</ele>
    <time>2025-08-17T06:41:06Z</time>
   </trkpt>
   <trkpt lat="25.0264010" lon="121.4280130">
    <ele>23.8</ele>
    <time>2025-08-17T06:41:07Z</time>
   </trkpt>
   <trkpt lat="25.0264390" lon="121.4279930">
    <ele>23.7</ele>
    <time>2025-08-17T06:41:08Z</time>
   </trkpt>
   <trkpt lat="25.0264760" lon="121.4279720">
    <ele>22.9</ele>
    <time>2025-08-17T06:41:14Z</time>
   </trkpt>
   <trkpt lat="25.0265140" lon="121.4279520">
    <ele>22.6</ele>
    <time>2025-08-17T06:41:15Z</time>
   </trkpt>
   <trkpt lat="25.0265420" lon="121.4279430">
    <ele>22.6</ele>
    <time>2025-08-17T06:41:16Z</time>
   </trkpt>
   <trkpt lat="25.0265540" lon="121.4279360">
    <ele>21.8</ele>
    <time>2025-08-17T06:41:17Z</time>
   </trkpt>
   <trkpt lat="25.0265850" lon="121.4279140">
    <ele>21.5</ele>
    <time>2025-08-17T06:41:18Z</time>
   </trkpt>
   <trkpt lat="25.0265730" lon="121.4279210">
    <ele>21.8</ele>
    <time>2025-08-17T06:41:19Z</time>
   </trkpt>
   <trkpt lat="25.0266010" lon="121.4279080">
    <ele>21.5</ele>
    <time>2025-08-17T06:41:20Z</time>
   </trkpt>
   <trkpt lat="25.0265590" lon="121.4279320">
    <ele>21.8</ele>
    <time>2025-08-17T06:41:21Z</time>
   </trkpt>
   <trkpt lat="25.0265590" lon="121.4279570">
    <ele>22.2</ele>
    <time>2025-08-17T06:41:22Z</time>
   </trkpt>
   <trkpt lat="25.0265370" lon="121.4279830">
    <ele>23.0</ele>
    <time>2025-08-17T06:41:23Z</time>
   </trkpt>
   <trkpt lat="25.0265460" lon="121.4279780">
    <ele>22.2</ele>
    <time>2025-08-17T06:41:24Z</time>
   </trkpt>
   <trkpt lat="25.0265140" lon="121.4279600">
    <ele>22.4</ele>
    <time>2025-08-17T06:41:25Z</time>
   </trkpt>
   <trkpt lat="25.0265230" lon="121.4280160">
    <ele>22.9</ele>
    <time>2025-08-17T06:41:26Z</time>
   </trkpt>
   <trkpt lat="25.0264850" lon="121.4280550">
    <ele>23.5</ele>
    <time>2025-08-17T06:41:27Z</time>
   </trkpt>
   <trkpt lat="25.0264720" lon="121.4280730">
    <ele>23.8</ele>
    <time>2025-08-17T06:41:28Z</time>
   </trkpt>
   <trkpt lat="25.0264580" lon="121.4280920">
    <ele>24.0</ele>
    <time>2025-08-17T06:41:29Z</time>
   </trkpt>
   <trkpt lat="25.0264320" lon="121.4280910">
    <ele>24.0</ele>
    <time>2025-08-17T06:41:30Z</time>
   </trkpt>
   <trkpt lat="25.0264240" lon="121.4280870">
    <ele>24.1</ele>
    <time>2025-08-17T06:41:31Z</time>
   </trkpt>
   <trkpt lat="25.0264280" lon="121.4280900">
    <ele>24.1</ele>
    <time>2025-08-17T06:41:32Z</time>
   </trkpt>
   <trkpt lat="25.0264100" lon="121.4281440">
    <ele>24.3</ele>
    <time>2025-08-17T06:41:33Z</time>
   </trkpt>
   <trkpt lat="25.0263980" lon="121.4281920">
    <ele>24.5</ele>
    <time>2025-08-17T06:41:34Z</time>
   </trkpt>
   <trkpt lat="25.0263750" lon="121.4282180">
    <ele>24.4</ele>
    <time>2025-08-17T06:41:35Z</time>
   </trkpt>
   <trkpt lat="25.0263780" lon="121.4282250">
    <ele>24.4</ele>
    <time>2025-08-17T06:41:36Z</time>
   </trkpt>
   <trkpt lat="25.0263540" lon="121.4282380">
    <ele>24.4</ele>
    <time>2025-08-17T06:41:37Z</time>
   </trkpt>
   <trkpt lat="25.0263680" lon="121.4282430">
    <ele>24.3</ele>
    <time>2025-08-17T06:41:38Z</time>
   </trkpt>
   <trkpt lat="25.0263780" lon="121.4282520">
    <ele>24.3</ele>
    <time>2025-08-17T06:41:39Z</time>
   </trkpt>
   <trkpt lat="25.0263890" lon="121.4282620">
    <ele>24.3</ele>
    <time>2025-08-17T06:41:40Z</time>
   </trkpt>
   <trkpt lat="25.0263900" lon="121.4282780">
    <ele>24.5</ele>
    <time>2025-08-17T06:41:41Z</time>
   </trkpt>
   <trkpt lat="25.0263920" lon="121.4282810">
    <ele>24.5</ele>
    <time>2025-08-17T06:41:42Z</time>
   </trkpt>
   <trkpt lat="25.0263940" lon="121.4282830">
    <ele>24.5</ele>
    <time>2025-08-17T06:41:43Z</time>
   </trkpt>
   <trkpt lat="25.0263960" lon="121.4282860">
    <ele>24.5</ele>
    <time>2025-08-17T06:41:44Z</time>
   </trkpt>
   <trkpt lat="25.0263980" lon="121.4282880">
    <ele>24.4</ele>
    <time>2025-08-17T06:41:45Z</time>
   </trkpt>
   <trkpt lat="25.0264010" lon="121.4282900">
    <ele>24.4</ele>
    <time>2025-08-17T06:41:46Z</time>
   </trkpt>
   <trkpt lat="25.0264030" lon="121.4282930">
    <ele>24.4</ele>
    <time>2025-08-17T06:41:53Z</time>
   </trkpt>
   <trkpt lat="25.0264050" lon="121.4282950">
    <ele>24.4</ele>
    <time>2025-08-17T06:41:54Z</time>
   </trkpt>
   <trkpt lat="25.0264070" lon="121.4282980">
    <ele>24.4</ele>
    <time>2025-08-17T06:41:55Z</time>
   </trkpt>
   <trkpt lat="25.0264090" lon="121.4283000">
    <ele>24.3</ele>
    <time>2025-08-17T06:41:56Z</time>
   </trkpt>
   <trkpt lat="25.0264110" lon="121.4283030">
    <ele>24.3</ele>
    <time>2025-08-17T06:41:57Z</time>
   </trkpt>
   <trkpt lat="25.0264130" lon="121.4283050">
    <ele>24.3</ele>
    <time>2025-08-17T06:41:58Z</time>
   </trkpt>
   <trkpt lat="25.0263970" lon="121.4283240">
    <ele>24.3</ele>
    <time>2025-08-17T06:41:59Z</time>
   </trkpt>
   <trkpt lat="25.0263780" lon="121.4283430">
    <ele>24.0</ele>
    <time>2025-08-17T06:42:00Z</time>
   </trkpt>
   <trkpt lat="25.0263590" lon="121.4283630">
    <ele>24.0</ele>
    <time>2025-08-17T06:42:01Z</time>
   </trkpt>
   <trkpt lat="25.0263400" lon="121.4283820">
    <ele>23.5</ele>
    <time>2025-08-17T06:42:02Z</time>
   </trkpt>
   <trkpt lat="25.0263210" lon="121.4284010">
    <ele>23.5</ele>
    <time>2025-08-17T06:42:20Z</time>
   </trkpt>
   <trkpt lat="25.0263020" lon="121.4284200">
    <ele>22.7</ele>
    <time>2025-08-17T06:42:21Z</time>
   </trkpt>
   <trkpt lat="25.0264230" lon="121.4283460">
    <ele>24.2</ele>
    <time>2025-08-17T06:42:22Z</time>
   </trkpt>
   <trkpt lat="25.0264460" lon="121.4283340">
    <ele>24.0</ele>
    <time>2025-08-17T06:42:23Z</time>
   </trkpt>
   <trkpt lat="25.0264680" lon="121.4283230">
    <ele>23.7</ele>
    <time>2025-08-17T06:42:24Z</time>
   </trkpt>
   <trkpt lat="25.0265010" lon="121.4282800">
    <ele>23.7</ele>
    <time>2025-08-17T06:42:25Z</time>
   </trkpt>
   <trkpt lat="25.0265060" lon="121.4282380">
    <ele>23.7</ele>
    <time>2025-08-17T06:42:26Z</time>
   </trkpt>
   <trkpt lat="25.0264880" lon="121.4282330">
    <ele>23.7</ele>
    <time>2025-08-17T06:42:27Z</time>
   </trkpt>
   <trkpt lat="25.0264080" lon="121.4282240">
    <ele>24.0</ele>
    <time>2025-08-17T06:42:28Z</time>
   </trkpt>
   <trkpt lat="25.0263940" lon="121.4282190">
    <ele>24.0</ele>
    <time>2025-08-17T06:42:29Z</time>
   </trkpt>
   <trkpt lat="25.0263880" lon="121.4282050">
    <ele>23.7</ele>
    <time>2025-08-17T06:42:30Z</time>
   </trkpt>
   <trkpt lat="25.0263740" lon="121.4281970">
    <ele>23.7</ele>
    <time>2025-08-17T06:42:31Z</time>
   </trkpt>
   <trkpt lat="25.0263600" lon="121.4281900">
    <ele>23.6</ele>
    <time>2025-08-17T06:42:32Z</time>
   </trkpt>
   <trkpt lat="25.0263530" lon="121.4281840">
    <ele>23.5</ele>
    <time>2025-08-17T06:42:33Z</time>
   </trkpt>
   <trkpt lat="25.0263490" lon="121.4281820">
    <ele>23.3</ele>
    <time>2025-08-17T06:42:34Z</time>
   </trkpt>
   <trkpt lat="25.0263570" lon="121.4281790">
    <ele>23.5</ele>
    <time>2025-08-17T06:42:35Z</time>
   </trkpt>
   <trkpt lat="25.0263560" lon="121.4281680">
    <ele>23.5</ele>
    <time>2025-08-17T06:42:36Z</time>
   </trkpt>
   <trkpt lat="25.0263550" lon="121.4281600">
    <ele>23.5</ele>
    <time>2025-08-17T06:42:37Z</time>
   </trkpt>
   <trkpt lat="25.0263680" lon="121.4281510">
    <ele>23.2</ele>
    <time>2025-08-17T06:42:38Z</time>
   </trkpt>
   <trkpt lat="25.0263660" lon="121.4281420">
    <ele>23.2</ele>
    <time>2025-08-17T06:42:39Z</time>
   </trkpt>
   <trkpt lat="25.0263500" lon="121.4281250">
    <ele>22.9</ele>
    <time>2025-08-17T06:42:40Z</time>
   </trkpt>
   <trkpt lat="25.0263520" lon="121.4280920">
    <ele>22.9</ele>
    <time>2025-08-17T06:42:41Z</time>
   </trkpt>
   <trkpt lat="25.0263540" lon="121.4280600">
    <ele>22.6</ele>
    <time>2025-08-17T06:42:42Z</time>
   </trkpt>
   <trkpt lat="25.0263550" lon="121.4280490">
    <ele>22.6</ele>
    <time>2025-08-17T06:42:43Z</time>
   </trkpt>
   <trkpt lat="25.0263600" lon="121.4280330">
    <ele>22.6</ele>
    <time>2025-08-17T06:42:44Z</time>
   </trkpt>
   <trkpt lat="25.0263610" lon="121.4280230">
    <ele>22.6</ele>
    <time>2025-08-17T06:42:45Z</time>
   </trkpt>
   <trkpt lat="25.0263630" lon="121.4280160">
    <ele>22.2</ele>
    <time>2025-08-17T06:42:46Z</time>
   </trkpt>
   <trkpt lat="25.0263840" lon="121.4279890">
    <ele>22.2</ele>
    <time>2025-08-17T06:42:47Z</time>
   </trkpt>
   <trkpt lat="25.0263940" lon="121.4279750">
    <ele>21.9</ele>
    <time>2025-08-17T06:42:48Z</time>
   </trkpt>
   <trkpt lat="25.0264030" lon="121.4279620">
    <ele>21.8</ele>
    <time>2025-08-17T06:42:49Z</time>
   </trkpt>
   <trkpt lat="25.0264080" lon="121.4279410">
    <ele>21.8</ele>
    <time>2025-08-17T06:42:50Z</time>
   </trkpt>
   <trkpt lat="25.0263850" lon="121.4279260">
    <ele>21.2</ele>
    <time>2025-08-17T06:42:51Z</time>
   </trkpt>
   <trkpt lat="25.0263810" lon="121.4279310">
    <ele>21.2</ele>
    <time>2025-08-17T06:42:52Z</time>
   </trkpt>
   <trkpt lat="25.0263770" lon="121.4279380">
    <ele>21.6</ele>
    <time>2025-08-17T06:42:53Z</time>
   </trkpt>
   <trkpt lat="25.0263660" lon="121.4279540">
    <ele>21.6</ele>
    <time>2025-08-17T06:42:54Z</time>
   </trkpt>
   <trkpt lat="25.0263540" lon="121.4279630">
    <ele>21.6</ele>
    <time>2025-08-17T06:42:55Z</time>
   </trkpt>
   <trkpt lat="25.0263420" lon="121.4279700">
    <ele>21.4</ele>
    <time>2025-08-17T06:42:56Z</time>
   </trkpt>
   <trkpt lat="25.0263340" lon="121.4279810">
    <ele>21.7</ele>
    <time>2025-08-17T06:42:57Z</time>
   </trkpt>
   <trkpt lat="25.0263190" lon="121.4279910">
    <ele>21.7</ele>
    <time>2025-08-17T06:42:58Z</time>
   </trkpt>
   <trkpt lat="25.0262880" lon="121.4280050">
    <ele>21.5</ele>
    <time>2025-08-17T06:42:59Z</time>
   </trkpt>
   <trkpt lat="25.0262740" lon="121.4280090">
    <ele>21.5</ele>
    <time>2025-08-17T06:43:00Z</time>
   </trkpt>
   <trkpt lat="25.0262440" lon="121.4280310">
    <ele>21.5</ele>
    <time>2025-08-17T06:43:01Z</time>
   </trkpt>
   <trkpt lat="25.0262340" lon="121.4280370">
    <ele>21.2</ele>
    <time>2025-08-17T06:43:02Z</time>
   </trkpt>
   <trkpt lat="25.0262250" lon="121.4280720">
    <ele>21.3</ele>
    <time>2025-08-17T06:43:03Z</time>
   </trkpt>
   <trkpt lat="25.0262230" lon="121.4280850">
    <ele>21.3</ele>
    <time>2025-08-17T06:43:04Z</time>
   </trkpt>
   <trkpt lat="25.0262200" lon="121.4281250">
    <ele>21.5</ele>
    <time>2025-08-17T06:43:05Z</time>
   </trkpt>
   <trkpt lat="25.0262150" lon="121.4281340">
    <ele>21.4</ele>
    <time>2025-08-17T06:43:06Z</time>
   </trkpt>
   <trkpt lat="25.0262090" lon="121.4281700">
    <ele>21.6</ele>
    <time>2025-08-17T06:43:07Z</time>
   </trkpt>
   <trkpt lat="25.0262000" lon="121.4282070">
    <ele>21.7</ele>
    <time>2025-08-17T06:43:08Z</time>
   </trkpt>
   <trkpt lat="25.0261970" lon="121.4282440">
    <ele>21.7</ele>
    <time>2025-08-17T06:43:09Z</time>
   </trkpt>
   <trkpt lat="25.0261430" lon="121.4282910">
    <ele>20.6</ele>
    <time>2025-08-17T06:43:10Z</time>
   </trkpt>
   <trkpt lat="25.0261310" lon="121.4283250">
    <ele>20.6</ele>
    <time>2025-08-17T06:43:11Z</time>
   </trkpt>
   <trkpt lat="25.0261250" lon="121.4283350">
    <ele>20.6</ele>
    <time>2025-08-17T06:43:12Z</time>
   </trkpt>
   <trkpt lat="25.0261010" lon="121.4283600">
    <ele>20.1</ele>
    <time>2025-08-17T06:43:13Z</time>
   </trkpt>
   <trkpt lat="25.0260900" lon="121.4283670">
    <ele>20.0</ele>
    <time>2025-08-17T06:43:14Z</time>
   </trkpt>
   <trkpt lat="25.0260650" lon="121.4283850">
    <ele>19.5</ele>
    <time>2025-08-17T06:43:15Z</time>
   </trkpt>
   <trkpt lat="25.0260440" lon="121.4283690">
    <ele>19.5</ele>
    <time>2025-08-17T06:43:16Z</time>
   </trkpt>
   <trkpt lat="25.0260350" lon="121.4283610">
    <ele>19.0</ele>
    <time>2025-08-17T06:43:17Z</time>
   </trkpt>
   <trkpt lat="25.0260250" lon="121.4283530">
    <ele>19.0</ele>
    <time>2025-08-17T06:43:18Z</time>
   </trkpt>
   <trkpt lat="25.0260010" lon="121.4283690">
    <ele>18.9</ele>
    <time>2025-08-17T06:43:19Z</time>
   </trkpt>
   <trkpt lat="25.0259940" lon="121.4283750">
    <ele>18.4</ele>
    <time>2025-08-17T06:43:20Z</time>
   </trkpt>
   <trkpt lat="25.0259690" lon="121.4283990">
    <ele>18.4</ele>
    <time>2025-08-17T06:43:21Z</time>
   </trkpt>
   <trkpt lat="25.0259600" lon="121.4284010">
    <ele>18.0</ele>
    <time>2025-08-17T06:43:22Z</time>
   </trkpt>
   <trkpt lat="25.0259200" lon="121.4283880">
    <ele>17.7</ele>
    <time>2025-08-17T06:43:23Z</time>
   </trkpt>
   <trkpt lat="25.0259000" lon="121.4283640">
    <ele>17.6</ele>
    <time>2025-08-17T06:43:24Z</time>
   </trkpt>
   <trkpt lat="25.0258800" lon="121.4283600">
    <ele>17.1</ele>
    <time>2025-08-17T06:43:25Z</time>
   </trkpt>
   <trkpt lat="25.0258720" lon="121.4283510">
    <ele>17.1</ele>
    <time>2025-08-17T06:43:26Z</time>
   </trkpt>
   <trkpt lat="25.0258630" lon="121.4283430">
    <ele>17.1</ele>
    <time>2025-08-17T06:43:27Z</time>
   </trkpt>
   <trkpt lat="25.0258540" lon="121.4283350">
    <ele>17.1</ele>
    <time>2025-08-17T06:43:28Z</time>
   </trkpt>
   <trkpt lat="25.0258450" lon="121.4283270">
    <ele>16.8</ele>
    <time>2025-08-17T06:43:29Z</time>
   </trkpt>
   <trkpt lat="25.0258370" lon="121.4283180">
    <ele>16.5</ele>
    <time>2025-08-17T06:43:30Z</time>
   </trkpt>
   <trkpt lat="25.0258280" lon="121.4283100">
    <ele>16.5</ele>
    <time>2025-08-17T06:43:31Z</time>
   </trkpt>
   <trkpt lat="25.0258270" lon="121.4283130">
    <ele>16.5</ele>
    <time>2025-08-17T06:43:32Z</time>
   </trkpt>
   <trkpt lat="25.0258270" lon="121.4283130">
    <ele>16.5</ele>
    <time>2025-08-17T06:43:33Z</time>
   </trkpt>
   <trkpt lat="25.0258220" lon="121.4283130">
    <ele>16.4</ele>
    <time>2025-08-17T06:43:34Z</time>
   </trkpt>
   <trkpt lat="25.0258000" lon="121.4282990">
    <ele>16.0</ele>
    <time>2025-08-17T06:43:35Z</time>
   </trkpt>
   <trkpt lat="25.0257690" lon="121.4282250">
    <ele>16.2</ele>
    <time>2025-08-17T06:43:36Z</time>
   </trkpt>
   <trkpt lat="25.0257550" lon="121.4282060">
    <ele>16.2</ele>
    <time>2025-08-17T06:43:37Z</time>
   </trkpt>
   <trkpt lat="25.0257450" lon="121.4281920">
    <ele>16.2</ele>
    <time>2025-08-17T06:43:38Z</time>
   </trkpt>
   <trkpt lat="25.0257350" lon="121.4281790">
    <ele>16.3</ele>
    <time>2025-08-17T06:43:39Z</time>
   </trkpt>
   <trkpt lat="25.0257250" lon="121.4281650">
    <ele>16.3</ele>
    <time>2025-08-17T06:43:40Z</time>
   </trkpt>
   <trkpt lat="25.0257150" lon="121.4281510">
    <ele>16.3</ele>
    <time>2025-08-17T06:43:41Z</time>
   </trkpt>
   <trkpt lat="25.0257020" lon="121.4281110">
    <ele>16.4</ele>
    <time>2025-08-17T06:43:42Z</time>
   </trkpt>
   <trkpt lat="25.0256960" lon="121.4281130">
    <ele>16.4</ele>
    <time>2025-08-17T06:43:43Z</time>
   </trkpt>
   <trkpt lat="25.0256970" lon="121.4281170">
    <ele>16.4</ele>
    <time>2025-08-17T06:43:44Z</time>
   </trkpt>
   <trkpt lat="25.0257230" lon="121.4281310">
    <ele>16.5</ele>
    <time>2025-08-17T06:43:45Z</time>
   </trkpt>
   <trkpt lat="25.0257240" lon="121.4281160">
    <ele>16.5</ele>
    <time>2025-08-17T06:43:46Z</time>
   </trkpt>
   <trkpt lat="25.0257250" lon="121.4281020">
    <ele>16.5</ele>
    <time>2025-08-17T06:43:47Z</time>
   </trkpt>
   <trkpt lat="25.0257260" lon="121.4280870">
    <ele>16.5</ele>
    <time>2025-08-17T06:43:48Z</time>
   </trkpt>
   <trkpt lat="25.0257240" lon="121.4280750">
    <ele>16.5</ele>
    <time>2025-08-17T06:43:49Z</time>
   </trkpt>
   <trkpt lat="25.0257220" lon="121.4280660">
    <ele>16.6</ele>
    <time>2025-08-17T06:43:50Z</time>
   </trkpt>
   <trkpt lat="25.0257190" lon="121.4280580">
    <ele>16.6</ele>
    <time>2025-08-17T06:43:51Z</time>
   </trkpt>
   <trkpt lat="25.0257160" lon="121.4280490">
    <ele>16.6</ele>
    <time>2025-08-17T06:43:52Z</time>
   </trkpt>
   <trkpt lat="25.0257140" lon="121.4280410">
    <ele>16.6</ele>
    <time>2025-08-17T06:43:54Z</time>
   </trkpt>
   <trkpt lat="25.0257110" lon="121.4280320">
    <ele>16.6</ele>
    <time>2025-08-17T06:43:55Z</time>
   </trkpt>
   <trkpt lat="25.0257090" lon="121.4280240">
    <ele>16.6</ele>
    <time>2025-08-17T06:43:56Z</time>
   </trkpt>
   <trkpt lat="25.0257060" lon="121.4280150">
    <ele>16.6</ele>
    <time>2025-08-17T06:43:57Z</time>
   </trkpt>
   <trkpt lat="25.0257030" lon="121.4280070">
    <ele>16.5</ele>
    <time>2025-08-17T06:43:58Z</time>
   </trkpt>
   <trkpt lat="25.0257010" lon="121.4279980">
    <ele>16.5</ele>
    <time>2025-08-17T06:43:59Z</time>
   </trkpt>
   <trkpt lat="25.0256980" lon="121.4279900">
    <ele>16.5</ele>
    <time>2025-08-17T06:44:00Z</time>
   </trkpt>
   <trkpt lat="25.0256860" lon="121.4279620">
    <ele>16.5</ele>
    <time>2025-08-17T06:44:01Z</time>
   </trkpt>
   <trkpt lat="25.0257130" lon="121.4279700">
    <ele>16.5</ele>
    <time>2025-08-17T06:44:02Z</time>
   </trkpt>
   <trkpt lat="25.0257160" lon="121.4279830">
    <ele>16.5</ele>
    <time>2025-08-17T06:44:03Z</time>
   </trkpt>
   <trkpt lat="25.0257180" lon="121.4279900">
    <ele>16.5</ele>
    <time>2025-08-17T06:44:23Z</time>
   </trkpt>
   <trkpt lat="25.0257200" lon="121.4279980">
    <ele>16.5</ele>
    <time>2025-08-17T06:44:24Z</time>
   </trkpt>
   <trkpt lat="25.0257210" lon="121.4280060">
    <ele>16.5</ele>
    <time>2025-08-17T06:44:25Z</time>
   </trkpt>
   <trkpt lat="25.0257230" lon="121.4280140">
    <ele>16.4</ele>
    <time>2025-08-17T06:44:26Z</time>
   </trkpt>
   <trkpt lat="25.0257250" lon="121.4280210">
    <ele>16.4</ele>
    <time>2025-08-17T06:44:27Z</time>
   </trkpt>
   <trkpt lat="25.0257270" lon="121.4280290">
    <ele>16.4</ele>
    <time>2025-08-17T06:44:28Z</time>
   </trkpt>
   <trkpt lat="25.0257130" lon="121.4280430">
    <ele>16.4</ele>
    <time>2025-08-17T06:44:29Z</time>
   </trkpt>
   <trkpt lat="25.0256990" lon="121.4280620">
    <ele>16.4</ele>
    <time>2025-08-17T06:44:30Z</time>
   </trkpt>
   <trkpt lat="25.0256810" lon="121.4280290">
    <ele>16.4</ele>
    <time>2025-08-17T06:44:31Z</time>
   </trkpt>
   <trkpt lat="25.0256720" lon="121.4280240">
    <ele>16.4</ele>
    <time>2025-08-17T06:44:32Z</time>
   </trkpt>
   <trkpt lat="25.0257140" lon="121.4280320">
    <ele>16.3</ele>
    <time>2025-08-17T06:44:33Z</time>
   </trkpt>
   <trkpt lat="25.0257420" lon="121.4280250">
    <ele>16.3</ele>
    <time>2025-08-17T06:44:34Z</time>
   </trkpt>
   <trkpt lat="25.0257340" lon="121.4280020">
    <ele>16.3</ele>
    <time>2025-08-17T06:44:35Z</time>
   </trkpt>
   <trkpt lat="25.0257400" lon="121.4279990">
    <ele>16.3</ele>
    <time>2025-08-17T06:44:36Z</time>
   </trkpt>
   <trkpt lat="25.0257330" lon="121.4279920">
    <ele>16.3</ele>
    <time>2025-08-17T06:44:37Z</time>
   </trkpt>
   <trkpt lat="25.0257350" lon="121.4279670">
    <ele>16.2</ele>
    <time>2025-08-17T06:44:38Z</time>
   </trkpt>
   <trkpt lat="25.0257310" lon="121.4279700">
    <ele>16.2</ele>
    <time>2025-08-17T06:44:39Z</time>
   </trkpt>
   <trkpt lat="25.0257320" lon="121.4279690">
    <ele>16.2</ele>
    <time>2025-08-17T06:44:40Z</time>
   </trkpt>
   <trkpt lat="25.0257300" lon="121.4279700">
    <ele>16.2</ele>
    <time>2025-08-17T06:44:41Z</time>
   </trkpt>
   <trkpt lat="25.0257300" lon="121.4279700">
    <ele>16.2</ele>
    <time>2025-08-17T06:44:42Z</time>
   </trkpt>
   <trkpt lat="25.0257270" lon="121.4279880">
    <ele>16.2</ele>
    <time>2025-08-17T06:44:43Z</time>
   </trkpt>
   <trkpt lat="25.0257260" lon="121.4279870">
    <ele>16.2</ele>
    <time>2025-08-17T06:44:44Z</time>
   </trkpt>
   <trkpt lat="25.0257310" lon="121.4280000">
    <ele>16.2</ele>
    <time>2025-08-17T06:44:45Z</time>
   </trkpt>
   <trkpt lat="25.0257420" lon="121.4280060">
    <ele>16.2</ele>
    <time>2025-08-17T06:44:46Z</time>
   </trkpt>
   <trkpt lat="25.0257560" lon="121.4280180">
    <ele>16.2</ele>
    <time>2025-08-17T06:44:47Z</time>
   </trkpt>
   <trkpt lat="25.0257530" lon="121.4279940">
    <ele>16.2</ele>
    <time>2025-08-17T06:44:48Z</time>
   </trkpt>
   <trkpt lat="25.0257330" lon="121.4279570">
    <ele>16.1</ele>
    <time>2025-08-17T06:44:49Z</time>
   </trkpt>
   <trkpt lat="25.0257330" lon="121.4279430">
    <ele>16.1</ele>
    <time>2025-08-17T06:44:50Z</time>
   </trkpt>
   <trkpt lat="25.0257310" lon="121.4279340">
    <ele>16.1</ele>
    <time>2025-08-17T06:44:51Z</time>
   </trkpt>
   <trkpt lat="25.0257290" lon="121.4279240">
    <ele>16.1</ele>
    <time>2025-08-17T06:44:52Z</time>
   </trkpt>
   <trkpt lat="25.0257260" lon="121.4279150">
    <ele>16.1</ele>
    <time>2025-08-17T06:44:53Z</time>
   </trkpt>
   <trkpt lat="25.0257240" lon="121.4279060">
    <ele>16.1</ele>
    <time>2025-08-17T06:44:54Z</time>
   </trkpt>
   <trkpt lat="25.0257220" lon="121.4278970">
    <ele>16.1</ele>
    <time>2025-08-17T06:44:55Z</time>
   </trkpt>
   <trkpt lat="25.0257540" lon="121.4279110">
    <ele>16.1</ele>
    <time>2025-08-17T06:44:56Z</time>
   </trkpt>
   <trkpt lat="25.0257730" lon="121.4279160">
    <ele>16.0</ele>
    <time>2025-08-17T06:44:57Z</time>
   </trkpt>
   <trkpt lat="25.0257820" lon="121.4279240">
    <ele>16.0</ele>
    <time>2025-08-17T06:44:58Z</time>
   </trkpt>
   <trkpt lat="25.0258020" lon="121.4279240">
    <ele>16.0</ele>
    <time>2025-08-17T06:44:59Z</time>
   </trkpt>
   <trkpt lat="25.0257610" lon="121.4279120">
    <ele>16.0</ele>
    <time>2025-08-17T06:45:00Z</time>
   </trkpt>
   <trkpt lat="25.0257210" lon="121.4278840">
    <ele>15.9</ele>
    <time>2025-08-17T06:45:01Z</time>
   </trkpt>
   <trkpt lat="25.0256820" lon="121.4278570">
    <ele>15.9</ele>
    <time>2025-08-17T06:45:02Z</time>
   </trkpt>
   <trkpt lat="25.0256840" lon="121.4278680">
    <ele>15.9</ele>
    <time>2025-08-17T06:45:03Z</time>
   </trkpt>
   <trkpt lat="25.0256950" lon="121.4278710">
    <ele>15.9</ele>
    <time>2025-08-17T06:45:04Z</time>
   </trkpt>
   <trkpt lat="25.0256990" lon="121.4278840">
    <ele>15.9</ele>
    <time>2025-08-17T06:45:05Z</time>
   </trkpt>
   <trkpt lat="25.0256990" lon="121.4278840">
    <ele>15.9</ele>
    <time>2025-08-17T06:45:06Z</time>
   </trkpt>
   <trkpt lat="25.0256990" lon="121.4278840">
    <ele>15.9</ele>
    <time>2025-08-17T06:45:07Z</time>
   </trkpt>
   <trkpt lat="25.0256990" lon="121.4278840">
    <ele>15.9</ele>
    <time>2025-08-17T06:45:08Z</time>
   </trkpt>
   <trkpt lat="25.0256660" lon="121.4278800">
    <ele>15.8</ele>
    <time>2025-08-17T06:45:09Z</time>
   </trkpt>
   <trkpt lat="25.0256800" lon="121.4278570">
    <ele>15.8</ele>
    <time>2025-08-17T06:45:10Z</time>
   </trkpt>
   <trkpt lat="25.0256940" lon="121.4278330">
    <ele>15.8</ele>
    <time>2025-08-17T06:45:20Z</time>
   </trkpt>
   <trkpt lat="25.0257070" lon="121.4278100">
    <ele>15.8</ele>
    <time>2025-08-17T06:45:21Z</time>
   </trkpt>
   <trkpt lat="25.0257210" lon="121.4277860">
    <ele>15.7</ele>
    <time>2025-08-17T06:45:22Z</time>
   </trkpt>
   <trkpt lat="25.0257350" lon="121.4277630">
    <ele>15.7</ele>
    <time>2025-08-17T06:45:23Z</time>
   </trkpt>
   <trkpt lat="25.0257490" lon="121.4277390">
    <ele>15.7</ele>
    <time>2025-08-17T06:45:24Z</time>
   </trkpt>
   <trkpt lat="25.0257620" lon="121.4277160">
    <ele>15.7</ele>
    <time>2025-08-17T06:45:25Z</time>
   </trkpt>
   <trkpt lat="25.0257760" lon="121.4276920">
    <ele>15.7</ele>
    <time>2025-08-17T06:45:27Z</time>
   </trkpt>
   <trkpt lat="25.0255350" lon="121.4275340">
    <ele>15.5</ele>
    <time>2025-08-17T06:46:25Z</time>
   </trkpt>
   <trkpt lat="25.0255250" lon="121.4275100">
    <ele>15.4</ele>
    <time>2025-08-17T06:46:26Z</time>
   </trkpt>
   <trkpt lat="25.0255160" lon="121.4274870">
    <ele>15.4</ele>
    <time>2025-08-17T06:46:27Z</time>
   </trkpt>
   <trkpt lat="25.0255060" lon="121.4274640">
    <ele>15.4</ele>
    <time>2025-08-17T06:46:28Z</time>
   </trkpt>
   <trkpt lat="25.0255000" lon="121.4274680">
    <ele>15.4</ele>
    <time>2025-08-17T06:46:29Z</time>
   </trkpt>
   <trkpt lat="25.0254960" lon="121.4274680">
    <ele>15.4</ele>
    <time>2025-08-17T06:46:30Z</time>
   </trkpt>
   <trkpt lat="25.0254900" lon="121.4274670">
    <ele>15.4</ele>
    <time>2025-08-17T06:46:31Z</time>
   </trkpt>
   <trkpt lat="25.0254930" lon="121.4274720">
    <ele>15.4</ele>
    <time>2025-08-17T06:46:32Z</time>
   </trkpt>
   <trkpt lat="25.0254980" lon="121.4274820">
    <ele>15.4</ele>
    <time>2025-08-17T06:46:33Z</time>
   </trkpt>
   <trkpt lat="25.0255090" lon="121.4274480">
    <ele>15.4</ele>
    <time>2025-08-17T06:46:34Z</time>
   </trkpt>
   <trkpt lat="25.0255020" lon="121.4274510">
    <ele>15.4</ele>
    <time>2025-08-17T06:46:35Z</time>
   </trkpt>
   <trkpt lat="25.0254930" lon="121.4274580">
    <ele>15.4</ele>
    <time>2025-08-17T06:46:36Z</time>
   </trkpt>
   <trkpt lat="25.0254930" lon="121.4274580">
    <ele>15.4</ele>
    <time>2025-08-17T06:46:37Z</time>
   </trkpt>
   <trkpt lat="25.0255150" lon="121.4275600">
    <ele>15.3</ele>
    <time>2025-08-17T06:46:48Z</time>
   </trkpt>
   <trkpt lat="25.0254930" lon="121.4275820">
    <ele>15.3</ele>
    <time>2025-08-17T06:46:49Z</time>
   </trkpt>
   <trkpt lat="25.0254520" lon="121.4275590">
    <ele>15.2</ele>
    <time>2025-08-17T06:46:50Z</time>
   </trkpt>
   <trkpt lat="25.0254070" lon="121.4275200">
    <ele>15.2</ele>
    <time>2025-08-17T06:46:51Z</time>
   </trkpt>
   <trkpt lat="25.0253610" lon="121.4274820">
    <ele>15.2</ele>
    <time>2025-08-17T06:46:52Z</time>
   </trkpt>
   <trkpt lat="25.0253900" lon="121.4274700">
    <ele>15.1</ele>
    <time>2025-08-17T06:46:53Z</time>
   </trkpt>
   <trkpt lat="25.0253840" lon="121.4274970">
    <ele>15.1</ele>
    <time>2025-08-17T06:46:54Z</time>
   </trkpt>
   <trkpt lat="25.0253910" lon="121.4275220">
    <ele>15.1</ele>
    <time>2025-08-17T06:46:55Z</time>
   </trkpt>
   <trkpt lat="25.0253810" lon="121.4275290">
    <ele>15.1</ele>
    <time>2025-08-17T06:46:56Z</time>
   </trkpt>
   <trkpt lat="25.0253700" lon="121.4275320">
    <ele>15.1</ele>
    <time>2025-08-17T06:46:57Z</time>
   </trkpt>
   <trkpt lat="25.0253980" lon="121.4275380">
    <ele>15.1</ele>
    <time>2025-08-17T06:46:58Z</time>
   </trkpt>
   <trkpt lat="25.0254140" lon="121.4275370">
    <ele>15.1</ele>
    <time>2025-08-17T06:46:59Z</time>
   </trkpt>
   <trkpt lat="25.0254110" lon="121.4275370">
    <ele>15.1</ele>
    <time>2025-08-17T06:47:00Z</time>
   </trkpt>
   <trkpt lat="25.0254110" lon="121.4275360">
    <ele>15.1</ele>
    <time>2025-08-17T06:47:01Z</time>
   </trkpt>
   <trkpt lat="25.0254110" lon="121.4275360">
    <ele>15.1</ele>
    <time>2025-08-17T06:47:02Z</time>
   </trkpt>
   <trkpt lat="25.0254110" lon="121.4275360">
    <ele>15.1</ele>
    <time>2025-08-17T06:47:03Z</time>
   </trkpt>
   <trkpt lat="25.0253810" lon="121.4275010">
    <ele>15.0</ele>
    <time>2025-08-17T06:47:04Z</time>
   </trkpt>
   <trkpt lat="25.0254080" lon="121.4274940">
    <ele>15.0</ele>
    <time>2025-08-17T06:47:05Z</time>
   </trkpt>
   <trkpt lat="25.0254260" lon="121.4275140">
    <ele>15.0</ele>
    <time>2025-08-17T06:47:06Z</time>
   </trkpt>
   <trkpt lat="25.0254420" lon="121.4275330">
    <ele>15.0</ele>
    <time>2025-08-17T06:47:07Z</time>
   </trkpt>
   <trkpt lat="25.0254590" lon="121.4275530">
    <ele>15.0</ele>
    <time>2025-08-17T06:47:21Z</time>
   </trkpt>
   <trkpt lat="25.0254750" lon="121.4275720">
    <ele>15.0</ele>
    <time>2025-08-17T06:47:22Z</time>
   </trkpt>
   <trkpt lat="25.0254640" lon="121.4275550">
    <ele>14.9</ele>
    <time>2025-08-17T06:47:23Z</time>
   </trkpt>
   <trkpt lat="25.0254540" lon="121.4275460">
    <ele>14.9</ele>
    <time>2025-08-17T06:47:24Z</time>
   </trkpt>
   <trkpt lat="25.0254430" lon="121.4275380">
    <ele>14.9</ele>
    <time>2025-08-17T06:47:25Z</time>
   </trkpt>
   <trkpt lat="25.0254730" lon="121.4275200">
    <ele>14.9</ele>
    <time>2025-08-17T06:47:26Z</time>
   </trkpt>
   <trkpt lat="25.0254820" lon="121.4275100">
    <ele>14.9</ele>
    <time>2025-08-17T06:47:27Z</time>
   </trkpt>
   <trkpt lat="25.0254990" lon="121.4274910">
    <ele>14.9</ele>
    <time>2025-08-17T06:47:28Z</time>
   </trkpt>
   <trkpt lat="25.0255100" lon="121.4274820">
    <ele>14.9</ele>
    <time>2025-08-17T06:47:29Z</time>
   </trkpt>
   <trkpt lat="25.0255330" lon="121.4274670">
    <ele>14.8</ele>
    <time>2025-08-17T06:47:30Z</time>
   </trkpt>
   <trkpt lat="25.0255420" lon="121.4274770">
    <ele>14.8</ele>
    <time>2025-08-17T06:47:31Z</time>
   </trkpt>
   <trkpt lat="25.0255730" lon="121.4274860">
    <ele>14.8</ele>
    <time>2025-08-17T06:47:32Z</time>
   </trkpt>
   <trkpt lat="25.0255820" lon="121.4274850">
    <ele>14.8</ele>
    <time>2025-08-17T06:47:33Z</time>
   </trkpt>
   <trkpt lat="25.0255690" lon="121.4274600">
    <ele>14.8</ele>
    <time>2025-08-17T06:47:34Z</time>
   </trkpt>
   <trkpt lat="25.0255600" lon="121.4274550">
    <ele>14.8</ele>
    <time>2025-08-17T06:47:35Z</time>
   </trkpt>
   <trkpt lat="25.0255570" lon="121.4274540">
    <ele>14.8</ele>
    <time>2025-08-17T06:47:36Z</time>
   </trkpt>
   <trkpt lat="25.0255620" lon="121.4274370">
    <ele>14.8</ele>
    <time>2025-08-17T06:47:37Z</time>
   </trkpt>
   <trkpt lat="25.0255640" lon="121.4274270">
    <ele>14.8</ele>
    <time>2025-08-17T06:47:38Z</time>
   </trkpt>
   <trkpt lat="25.0255550" lon="121.4274230">
    <ele>14.8</ele>
    <time>2025-08-17T06:47:39Z</time>
   </trkpt>
   <trkpt lat="25.0255530" lon="121.4274150">
    <ele>14.8</ele>
    <time>2025-08-17T06:47:40Z</time>
   </trkpt>
   <trkpt lat="25.0255450" lon="121.4273990">
    <ele>14.7</ele>
    <time>2025-08-17T06:47:41Z</time>
   </trkpt>
   <trkpt lat="25.0255420" lon="121.4273870">
    <ele>14.7</ele>
    <time>2025-08-17T06:47:42Z</time>
   </trkpt>
   <trkpt lat="25.0255310" lon="121.4273660">
    <ele>14.7</ele>
    <time>2025-08-17T06:47:43Z</time>
   </trkpt>
   <trkpt lat="25.0255260" lon="121.4273600">
    <ele>14.7</ele>
    <time>2025-08-17T06:47:44Z</time>
   </trkpt>
   <trkpt lat="25.0255220" lon="121.4273540">
    <ele>14.7</ele>
    <time>2025-08-17T06:47:45Z</time>
   </trkpt>
   <trkpt lat="25.0255170" lon="121.4273480">
    <ele>14.7</ele>
    <time>2025-08-17T06:47:46Z</time>
   </trkpt>
   <trkpt lat="25.0255130" lon="121.4273420">
    <ele>14.7</ele>
    <time>2025-08-17T06:47:47Z</time>
   </trkpt>
   <trkpt lat="25.0255080" lon="121.4273360">
    <ele>14.7</ele>
    <time>2025-08-17T06:47:48Z</time>
   </trkpt>
   <trkpt lat="25.0255040" lon="121.4273300">
    <ele>14.7</ele>
    <time>2025-08-17T06:47:49Z</time>
   </trkpt>
   <trkpt lat="25.0254990" lon="121.4273250">
    <ele>14.7</ele>
    <time>2025-08-17T06:47:50Z</time>
   </trkpt>
   <trkpt lat="25.0254950" lon="121.4273190">
    <ele>14.7</ele>
    <time>2025-08-17T06:47:51Z</time>
   </trkpt>
   <trkpt lat="25.0254900" lon="121.4273130">
    <ele>14.7</ele>
    <time>2025-08-17T06:47:52Z</time>
   </trkpt>
   <trkpt lat="25.0254860" lon="121.4273070">
    <ele>14.7</ele>
    <time>2025-08-17T06:47:53Z</time>
   </trkpt>
   <trkpt lat="25.0254810" lon="121.4273010">
    <ele>14.7</ele>
    <time>2025-08-17T06:48:13Z</time>
   </trkpt>
   <trkpt lat="25.0254770" lon="121.4272950">
    <ele>14.7</ele>
    <time>2025-08-17T06:48:14Z</time>
   </trkpt>
   <trkpt lat="25.0254720" lon="121.4272890">
    <ele>14.7</ele>
    <time>2025-08-17T06:48:15Z</time>
   </trkpt>
   <trkpt lat="25.0254840" lon="121.4272890">
    <ele>14.7</ele>
    <time>2025-08-17T06:48:16Z</time>
   </trkpt>
   <trkpt lat="25.0254920" lon="121.4272840">
    <ele>14.7</ele>
    <time>2025-08-17T06:48:17Z</time>
   </trkpt>
   <trkpt lat="25.0255000" lon="121.4272870">
    <ele>14.7</ele>
    <time>2025-08-17T06:48:18Z</time>
   </trkpt>
   <trkpt lat="25.0255020" lon="121.4272850">
    <ele>14.7</ele>
    <time>2025-08-17T06:48:19Z</time>
   </trkpt>
   <trkpt lat="25.0255010" lon="121.4272810">
    <ele>14.7</ele>
    <time>2025-08-17T06:48:20Z</time>
   </trkpt>
   <trkpt lat="25.0255000" lon="121.4272770">
    <ele>14.7</ele>
    <time>2025-08-17T06:48:21Z</time>
   </trkpt>
   <trkpt lat="25.0254990" lon="121.4272720">
    <ele>14.7</ele>
    <time>2025-08-17T06:48:22Z</time>
   </trkpt>
   <trkpt lat="25.0254980" lon="121.4272680">
    <ele>14.7</ele>
    <time>2025-08-17T06:48:57Z</time>
   </trkpt>
   <trkpt lat="25.0254970" lon="121.4272640">
    <ele>14.7</ele>
    <time>2025-08-17T06:48:58Z</time>
   </trkpt>
   <trkpt lat="25.0254970" lon="121.4272600">
    <ele>14.7</ele>
    <time>2025-08-17T06:48:59Z</time>
   </trkpt>
   <trkpt lat="25.0254960" lon="121.4272560">
    <ele>14.7</ele>
    <time>2025-08-17T06:49:00Z</time>
   </trkpt>
   <trkpt lat="25.0254950" lon="121.4272520">
    <ele>14.7</ele>
    <time>2025-08-17T06:49:01Z</time>
   </trkpt>
   <trkpt lat="25.0254940" lon="121.4272470">
    <ele>14.7</ele>
    <time>2025-08-17T06:49:02Z</time>
   </trkpt>
   <trkpt lat="25.0254930" lon="121.4272430">
    <ele>14.7</ele>
    <time>2025-08-17T06:49:03Z</time>
   </trkpt>
   <trkpt lat="25.0254920" lon="121.4272390">
    <ele>14.7</ele>
    <time>2025-08-17T06:49:04Z</time>
   </trkpt>
   <trkpt lat="25.0254910" lon="121.4272350">
    <ele>14.7</ele>
    <time>2025-08-17T06:49:05Z</time>
   </trkpt>
   <trkpt lat="25.0254870" lon="121.4272250">
    <ele>14.7</ele>
    <time>2025-08-17T06:49:06Z</time>
   </trkpt>
   <trkpt lat="25.0254860" lon="121.4272240">
    <ele>14.7</ele>
    <time>2025-08-17T06:49:07Z</time>
   </trkpt>
   <trkpt lat="25.0254840" lon="121.4272150">
    <ele>14.7</ele>
    <time>2025-08-17T06:49:08Z</time>
   </trkpt>
   <trkpt lat="25.0254830" lon="121.4272100">
    <ele>14.7</ele>
    <time>2025-08-17T06:49:09Z</time>
   </trkpt>
   <trkpt lat="25.0254710" lon="121.4272110">
    <ele>14.7</ele>
    <time>2025-08-17T06:49:10Z</time>
   </trkpt>
   <trkpt lat="25.0254680" lon="121.4272010">
    <ele>14.7</ele>
    <time>2025-08-17T06:49:11Z</time>
   </trkpt>
   <trkpt lat="25.0254700" lon="121.4272030">
    <ele>14.7</ele>
    <time>2025-08-17T06:49:12Z</time>
   </trkpt>
   <trkpt lat="25.0254550" lon="121.4272120">
    <ele>14.7</ele>
    <time>2025-08-17T06:49:13Z</time>
   </trkpt>
   <trkpt lat="25.0254420" lon="121.4272170">
    <ele>14.7</ele>
    <time>2025-08-17T06:49:14Z</time>
   </trkpt>
   <trkpt lat="25.0254340" lon="121.4272440">
    <ele>14.7</ele>
    <time>2025-08-17T06:49:15Z</time>
   </trkpt>
   <trkpt lat="25.0254310" lon="121.4272640">
    <ele>14.7</ele>
    <time>2025-08-17T06:49:16Z</time>
   </trkpt>
   <trkpt lat="25.0254280" lon="121.4272830">
    <ele>14.7</ele>
    <time>2025-08-17T06:49:28Z</time>
   </trkpt>
   <trkpt lat="25.0254250" lon="121.4273030">
    <ele>14.7</ele>
    <time>2025-08-17T06:49:29Z</time>
   </trkpt>
   <trkpt lat="25.0254220" lon="121.4273230">
    <ele>14.7</ele>
    <time>2025-08-17T06:49:30Z</time>
   </trkpt>
   <trkpt lat="25.0254220" lon="121.4273280">
    <ele>14.7</ele>
    <time>2025-08-17T06:49:31Z</time>
   </trkpt>
   <trkpt lat="25.0254280" lon="121.4273340">
    <ele>14.7</ele>
    <time>2025-08-17T06:49:32Z</time>
   </trkpt>
   <trkpt lat="25.0254360" lon="121.4273510">
    <ele>14.7</ele>
    <time>2025-08-17T06:49:33Z</time>
   </trkpt>
   <trkpt lat="25.0254370" lon="121.4273640">
    <ele>14.7</ele>
    <time>2025-08-17T06:49:34Z</time>
   </trkpt>
   <trkpt lat="25.0254420" lon="121.4273720">
    <ele>14.7</ele>
    <time>2025-08-17T06:49:35Z</time>
   </trkpt>
   <trkpt lat="25.0254400" lon="121.4273830">
    <ele>14.7</ele>
    <time>2025-08-17T06:49:36Z</time>
   </trkpt>
   <trkpt lat="25.0254430" lon="121.4273980">
    <ele>14.7</ele>
    <time>2025-08-17T06:49:37Z</time>
   </trkpt>
   <trkpt lat="25.0254530" lon="121.4274070">
    <ele>14.7</ele>
    <time>2025-08-17T06:49:38Z</time>
   </trkpt>
   <trkpt lat="25.0254610" lon="121.4274060">
    <ele>14.7</ele>
    <time>2025-08-17T06:49:39Z</time>
   </trkpt>
   <trkpt lat="25.0254840" lon="121.4274250">
    <ele>14.7</ele>
    <time>2025-08-17T06:49:40Z</time>
   </trkpt>
   <trkpt lat="25.0254930" lon="121.4274310">
    <ele>14.7</ele>
    <time>2025-08-17T06:49:41Z</time>
   </trkpt>
   <trkpt lat="25.0255190" lon="121.4274390">
    <ele>14.7</ele>
    <time>2025-08-17T06:49:42Z</time>
   </trkpt>
   <trkpt lat="25.0255300" lon="121.4274360">
    <ele>14.7</ele>
    <time>2025-08-17T06:49:43Z</time>
   </trkpt>
   <trkpt lat="25.0255630" lon="121.4274240">
    <ele>14.6</ele>
    <time>2025-08-17T06:49:44Z</time>
   </trkpt>
   <trkpt lat="25.0255830" lon="121.4274140">
    <ele>14.5</ele>
    <time>2025-08-17T06:49:45Z</time>
   </trkpt>
   <trkpt lat="25.0255930" lon="121.4274080">
    <ele>14.4</ele>
    <time>2025-08-17T06:49:46Z</time>
   </trkpt>
   <trkpt lat="25.0256030" lon="121.4273920">
    <ele>14.4</ele>
    <time>2025-08-17T06:49:47Z</time>
   </trkpt>
   <trkpt lat="25.0256110" lon="121.4273890">
    <ele>14.3</ele>
    <time>2025-08-17T06:49:48Z</time>
   </trkpt>
   <trkpt lat="25.0256160" lon="121.4273830">
    <ele>14.3</ele>
    <time>2025-08-17T06:49:49Z</time>
   </trkpt>
   <trkpt lat="25.0256250" lon="121.4273800">
    <ele>14.3</ele>
    <time>2025-08-17T06:49:50Z</time>
   </trkpt>
   <trkpt lat="25.0256350" lon="121.4273770">
    <ele>14.3</ele>
    <time>2025-08-17T06:49:51Z</time>
   </trkpt>
   <trkpt lat="25.0256420" lon="121.4273750">
    <ele>14.2</ele>
    <time>2025-08-17T06:49:52Z</time>
   </trkpt>
   <trkpt lat="25.0256610" lon="121.4273750">
    <ele>14.2</ele>
    <time>2025-08-17T06:49:53Z</time>
   </trkpt>
   <trkpt lat="25.0256730" lon="121.4273750">
    <ele>14.1</ele>
    <time>2025-08-17T06:49:54Z</time>
   </trkpt>
   <trkpt lat="25.0256920" lon="121.4273630">
    <ele>14.0</ele>
    <time>2025-08-17T06:49:55Z</time>
   </trkpt>
   <trkpt lat="25.0256980" lon="121.4273590">
    <ele>14.0</ele>
    <time>2025-08-17T06:49:56Z</time>
   </trkpt>
   <trkpt lat="25.0257050" lon="121.4273540">
    <ele>14.0</ele>
    <time>2025-08-17T06:49:57Z</time>
   </trkpt>
   <trkpt lat="25.0257170" lon="121.4273450">
    <ele>13.9</ele>
    <time>2025-08-17T06:49:58Z</time>
   </trkpt>
   <trkpt lat="25.0257260" lon="121.4273410">
    <ele>13.9</ele>
    <time>2025-08-17T06:49:59Z</time>
   </trkpt>
   <trkpt lat="25.0257360" lon="121.4273380">
    <ele>13.9</ele>
    <time>2025-08-17T06:50:00Z</time>
   </trkpt>
   <trkpt lat="25.0257530" lon="121.4273270">
    <ele>13.8</ele>
    <time>2025-08-17T06:50:01Z</time>
   </trkpt>
   <trkpt lat="25.0257630" lon="121.4273220">
    <ele>13.8</ele>
    <time>2025-08-17T06:50:02Z</time>
   </trkpt>
   <trkpt lat="25.0257720" lon="121.4273160">
    <ele>13.8</ele>
    <time>2025-08-17T06:50:03Z</time>
   </trkpt>
   <trkpt lat="25.0257780" lon="121.4273020">
    <ele>13.7</ele>
    <time>2025-08-17T06:50:04Z</time>
   </trkpt>
   <trkpt lat="25.0257840" lon="121.4272970">
    <ele>13.7</ele>
    <time>2025-08-17T06:50:05Z</time>
   </trkpt>
   <trkpt lat="25.0257920" lon="121.4272930">
    <ele>13.9</ele>
    <time>2025-08-17T06:50:06Z</time>
   </trkpt>
   <trkpt lat="25.0258070" lon="121.4273260">
    <ele>14.3</ele>
    <time>2025-08-17T06:50:07Z</time>
   </trkpt>
   <trkpt lat="25.0258230" lon="121.4273600">
    <ele>14.7</ele>
    <time>2025-08-17T06:50:08Z</time>
   </trkpt>
   <trkpt lat="25.0258300" lon="121.4273930">
    <ele>15.1</ele>
    <time>2025-08-17T06:50:09Z</time>
   </trkpt>
   <trkpt lat="25.0258360" lon="121.4274070">
    <ele>15.2</ele>
    <time>2025-08-17T06:50:10Z</time>
   </trkpt>
   <trkpt lat="25.0258500" lon="121.4274440">
    <ele>15.7</ele>
    <time>2025-08-17T06:50:11Z</time>
   </trkpt>
   <trkpt lat="25.0258560" lon="121.4274540">
    <ele>15.8</ele>
    <time>2025-08-17T06:50:12Z</time>
   </trkpt>
   <trkpt lat="25.0258720" lon="121.4274920">
    <ele>16.2</ele>
    <time>2025-08-17T06:50:13Z</time>
   </trkpt>
   <trkpt lat="25.0258780" lon="121.4275090">
    <ele>16.4</ele>
    <time>2025-08-17T06:50:14Z</time>
   </trkpt>
   <trkpt lat="25.0258870" lon="121.4275130">
    <ele>16.6</ele>
    <time>2025-08-17T06:50:15Z</time>
   </trkpt>
   <trkpt lat="25.0259030" lon="121.4275240">
    <ele>16.8</ele>
    <time>2025-08-17T06:50:16Z</time>
   </trkpt>
   <trkpt lat="25.0259180" lon="121.4275260">
    <ele>17.0</ele>
    <time>2025-08-17T06:50:17Z</time>
   </trkpt>
   <trkpt lat="25.0259360" lon="121.4275400">
    <ele>17.2</ele>
    <time>2025-08-17T06:50:18Z</time>
   </trkpt>
   <trkpt lat="25.0259420" lon="121.4275540">
    <ele>17.4</ele>
    <time>2025-08-17T06:50:19Z</time>
   </trkpt>
   <trkpt lat="25.0259500" lon="121.4275640">
    <ele>17.5</ele>
    <time>2025-08-17T06:50:20Z</time>
   </trkpt>
   <trkpt lat="25.0259490" lon="121.4275780">
    <ele>17.7</ele>
    <time>2025-08-17T06:50:21Z</time>
   </trkpt>
   <trkpt lat="25.0259410" lon="121.4275880">
    <ele>17.8</ele>
    <time>2025-08-17T06:50:22Z</time>
   </trkpt>
   <trkpt lat="25.0259520" lon="121.4275880">
    <ele>17.9</ele>
    <time>2025-08-17T06:50:23Z</time>
   </trkpt>
   <trkpt lat="25.0259590" lon="121.4276140">
    <ele>18.2</ele>
    <time>2025-08-17T06:50:24Z</time>
   </trkpt>
   <trkpt lat="25.0259690" lon="121.4276480">
    <ele>18.6</ele>
    <time>2025-08-17T06:50:25Z</time>
   </trkpt>
   <trkpt lat="25.0259740" lon="121.4276560">
    <ele>18.7</ele>
    <time>2025-08-17T06:50:26Z</time>
   </trkpt>
   <trkpt lat="25.0259720" lon="121.4276590">
    <ele>18.7</ele>
    <time>2025-08-17T06:50:27Z</time>
   </trkpt>
   <trkpt lat="25.0259720" lon="121.4276890">
    <ele>19.0</ele>
    <time>2025-08-17T06:50:28Z</time>
   </trkpt>
   <trkpt lat="25.0259800" lon="121.4277170">
    <ele>19.3</ele>
    <time>2025-08-17T06:50:29Z</time>
   </trkpt>
   <trkpt lat="25.0259850" lon="121.4277300">
    <ele>19.5</ele>
    <time>2025-08-17T06:50:30Z</time>
   </trkpt>
   <trkpt lat="25.0259850" lon="121.4277320">
    <ele>19.5</ele>
    <time>2025-08-17T06:50:31Z</time>
   </trkpt>
   <trkpt lat="25.0259880" lon="121.4277360">
    <ele>19.6</ele>
    <time>2025-08-17T06:50:32Z</time>
   </trkpt>
   <trkpt lat="25.0259930" lon="121.4277430">
    <ele>19.7</ele>
    <time>2025-08-17T06:50:33Z</time>
   </trkpt>
   <trkpt lat="25.0259840" lon="121.4277630">
    <ele>19.9</ele>
    <time>2025-08-17T06:50:34Z</time>
   </trkpt>
   <trkpt lat="25.0259750" lon="121.4277710">
    <ele>20.0</ele>
    <time>2025-08-17T06:50:35Z</time>
   </trkpt>
   <trkpt lat="25.0259760" lon="121.4277960">
    <ele>20.3</ele>
    <time>2025-08-17T06:50:36Z</time>
   </trkpt>
   <trkpt lat="25.0259660" lon="121.4278350">
    <ele>20.7</ele>
    <time>2025-08-17T06:50:37Z</time>
   </trkpt>
   <trkpt lat="25.0259620" lon="121.4278470">
    <ele>20.9</ele>
    <time>2025-08-17T06:50:38Z</time>
   </trkpt>
   <trkpt lat="25.0259590" lon="121.4278470">
    <ele>20.9</ele>
    <time>2025-08-17T06:50:39Z</time>
   </trkpt>
   <trkpt lat="25.0259480" lon="121.4278620">
    <ele>21.1</ele>
    <time>2025-08-17T06:50:40Z</time>
   </trkpt>
   <trkpt lat="25.0259370" lon="121.4278720">
    <ele>21.2</ele>
    <time>2025-08-17T06:50:41Z</time>
   </trkpt>
   <trkpt lat="25.0259370" lon="121.4278810">
    <ele>21.3</ele>
    <time>2025-08-17T06:50:42Z</time>
   </trkpt>
   <trkpt lat="25.0259310" lon="121.4278910">
    <ele>21.4</ele>
    <time>2025-08-17T06:50:43Z</time>
   </trkpt>
   <trkpt lat="25.0259340" lon="121.4278820">
    <ele>21.5</ele>
    <time>2025-08-17T06:50:44Z</time>
   </trkpt>
   <trkpt lat="25.0259350" lon="121.4278550">
    <ele>21.8</ele>
    <time>2025-08-17T06:50:45Z</time>
   </trkpt>
   <trkpt lat="25.0259390" lon="121.4278400">
    <ele>21.9</ele>
    <time>2025-08-17T06:50:46Z</time>
   </trkpt>
   <trkpt lat="25.0259390" lon="121.4278400">
    <ele>21.9</ele>
    <time>2025-08-17T06:50:47Z</time>
   </trkpt>
  </trkseg>
 </trk>
</gpx>
