<?xml version="1.0" encoding="UTF-8"?>
<gpx xmlns:xsi="http://www.w3.org/2001/XMLSchema-instance" xsi:schemaLocation="http://www.topografix.com/GPX/1/1 http://www.topografix.com/GPX/1/1/gpx.xsd" creator="StravaGPX" version="1.1" xmlns="http://www.topografix.com/GPX/1/1">
 <metadata>
  <time>2025-08-23T08:26:29Z</time>
 </metadata>
 <trk>
  <name>午後騎乘</name>
  <type>cycling</type>
  <trkseg>
   <trkpt lat="25.0265030" lon="121.4211190">
    <ele>15.0</ele>
    <time>2025-08-23T08:26:29Z</time>
   </trkpt>
   <trkpt lat="25.0265030" lon="121.4211190">
    <ele>15.0</ele>
    <time>2025-08-23T08:26:30Z</time>
   </trkpt>
   <trkpt lat="25.0265040" lon="121.4211200">
    <ele>15.0</ele>
    <time>2025-08-23T08:26:31Z</time>
   </trkpt>
   <trkpt lat="25.0265030" lon="121.4211200">
    <ele>15.0</ele>
    <time>2025-08-23T08:26:32Z</time>
   </trkpt>
   <trkpt lat="25.0265030" lon="121.4211200">
    <ele>15.0</ele>
    <time>2025-08-23T08:26:33Z</time>
   </trkpt>
   <trkpt lat="25.0264990" lon="121.4211190">
    <ele>15.0</ele>
    <time>2025-08-23T08:26:34Z</time>
   </trkpt>
   <trkpt lat="25.0264840" lon="121.4211180">
    <ele>15.0</ele>
    <time>2025-08-23T08:26:35Z</time>
   </trkpt>
   <trkpt lat="25.0264920" lon="121.4211130">
    <ele>15.0</ele>
    <time>2025-08-23T08:26:36Z</time>
   </trkpt>
   <trkpt lat="25.0264960" lon="121.4211240">
    <ele>15.0</ele>
    <time>2025-08-23T08:26:37Z</time>
   </trkpt>
   <trkpt lat="25.0264970" lon="121.4211320">
    <ele>15.0</ele>
    <time>2025-08-23T08:26:38Z</time>
   </trkpt>
   <trkpt lat="25.0265020" lon="121.4211350">
    <ele>15.0</ele>
    <time>2025-08-23T08:26:39Z</time>
   </trkpt>
   <trkpt lat="25.0265050" lon="121.4211380">
    <ele>15.0</ele>
    <time>2025-08-23T08:26:40Z</time>
   </trkpt>
   <trkpt lat="25.0265030" lon="121.4211470">
    <ele>15.0</ele>
    <time>2025-08-23T08:26:41Z</time>
   </trkpt>
   <trkpt lat="25.0265030" lon="121.4211470">
    <ele>15.0</ele>
    <time>2025-08-23T08:26:42Z</time>
   </trkpt>
   <trkpt lat="25.0265030" lon="121.4211470">
    <ele>15.0</ele>
    <time>2025-08-23T08:26:43Z</time>
   </trkpt>
   <trkpt lat="25.0265030" lon="121.4211470">
    <ele>15.0</ele>
    <time>2025-08-23T08:26:44Z</time>
   </trkpt>
   <trkpt lat="25.0265030" lon="121.4211470">
    <ele>15.0</ele>
    <time>2025-08-23T08:26:45Z</time>
   </trkpt>
   <trkpt lat="25.0265030" lon="121.4211470">
    <ele>15.0</ele>
    <time>2025-08-23T08:26:46Z</time>
   </trkpt>
   <trkpt lat="25.0265100" lon="121.4211560">
    <ele>15.0</ele>
    <time>2025-08-23T08:26:47Z</time>
   </trkpt>
   <trkpt lat="25.0265100" lon="121.4211560">
    <ele>15.0</ele>
    <time>2025-08-23T08:26:48Z</time>
   </trkpt>
   <trkpt lat="25.0264930" lon="121.4211640">
    <ele>15.0</ele>
    <time>2025-08-23T08:26:49Z</time>
   </trkpt>
   <trkpt lat="25.0264870" lon="121.4211670">
    <ele>15.0</ele>
    <time>2025-08-23T08:26:50Z</time>
   </trkpt>
   <trkpt lat="25.0264730" lon="121.4211750">
    <ele>15.0</ele>
    <time>2025-08-23T08:26:51Z</time>
   </trkpt>
   <trkpt lat="25.0265040" lon="121.4211100">
    <ele>14.9</ele>
    <time>2025-08-23T08:27:13Z</time>
   </trkpt>
   <trkpt lat="25.0265050" lon="121.4211170">
    <ele>14.9</ele>
    <time>2025-08-23T08:27:14Z</time>
   </trkpt>
   <trkpt lat="25.0265040" lon="121.4211230">
    <ele>14.9</ele>
    <time>2025-08-23T08:27:15Z</time>
   </trkpt>
   <trkpt lat="25.0264980" lon="121.4211220">
    <ele>14.9</ele>
    <time>2025-08-23T08:27:16Z</time>
   </trkpt>
   <trkpt lat="25.0264910" lon="121.4211360">
    <ele>14.9</ele>
    <time>2025-08-23T08:27:17Z</time>
   </trkpt>
   <trkpt lat="25.0265140" lon="121.4211590">
    <ele>14.9</ele>
    <time>2025-08-23T08:27:18Z</time>
   </trkpt>
   <trkpt lat="25.0265260" lon="121.4211630">
    <ele>14.9</ele>
    <time>2025-08-23T08:27:19Z</time>
   </trkpt>
   <trkpt lat="25.0265380" lon="121.4211680">
    <ele>14.9</ele>
    <time>2025-08-23T08:27:20Z</time>
   </trkpt>
   <trkpt lat="25.0265500" lon="121.4211720">
    <ele>14.9</ele>
    <time>2025-08-23T08:27:21Z</time>
   </trkpt>
   <trkpt lat="25.0265620" lon="121.4211760">
    <ele>14.9</ele>
    <time>2025-08-23T08:27:22Z</time>
   </trkpt>
   <trkpt lat="25.0265500" lon="121.4211910">
    <ele>14.9</ele>
    <time>2025-08-23T08:27:23Z</time>
   </trkpt>
   <trkpt lat="25.0265720" lon="121.4212100">
    <ele>14.8</ele>
    <time>2025-08-23T08:27:24Z</time>
   </trkpt>
   <trkpt lat="25.0265800" lon="121.4212170">
    <ele>14.8</ele>
    <time>2025-08-23T08:27:25Z</time>
   </trkpt>
   <trkpt lat="25.0265830" lon="121.4212170">
    <ele>14.8</ele>
    <time>2025-08-23T08:27:26Z</time>
   </trkpt>
   <trkpt lat="25.0265870" lon="121.4212170">
    <ele>14.8</ele>
    <time>2025-08-23T08:27:27Z</time>
   </trkpt>
   <trkpt lat="25.0265910" lon="121.4212180">
    <ele>14.8</ele>
    <time>2025-08-23T08:27:28Z</time>
   </trkpt>
   <trkpt lat="25.0265940" lon="121.4212180">
    <ele>14.8</ele>
    <time>2025-08-23T08:27:29Z</time>
   </trkpt>
   <trkpt lat="25.0265980" lon="121.4212180">
    <ele>14.8</ele>
    <time>2025-08-23T08:27:30Z</time>
   </trkpt>
   <trkpt lat="25.0266020" lon="121.4212180">
    <ele>14.8</ele>
    <time>2025-08-23T08:27:31Z</time>
   </trkpt>
   <trkpt lat="25.0266050" lon="121.4212180">
    <ele>14.8</ele>
    <time>2025-08-23T08:27:32Z</time>
   </trkpt>
   <trkpt lat="25.0266090" lon="121.4212180">
    <ele>14.8</ele>
    <time>2025-08-23T08:27:33Z</time>
   </trkpt>
   <trkpt lat="25.0266130" lon="121.4212190">
    <ele>14.8</ele>
    <time>2025-08-23T08:27:34Z</time>
   </trkpt>
   <trkpt lat="25.0266160" lon="121.4212190">
    <ele>14.8</ele>
    <time>2025-08-23T08:32:32Z</time>
   </trkpt>
   <trkpt lat="25.0266200" lon="121.4212190">
    <ele>14.8</ele>
    <time>2025-08-23T08:32:33Z</time>
   </trkpt>
   <trkpt lat="25.0266540" lon="121.4212770">
    <ele>14.8</ele>
    <time>2025-08-23T08:32:34Z</time>
   </trkpt>
   <trkpt lat="25.0266520" lon="121.4212950">
    <ele>14.8</ele>
    <time>2025-08-23T08:32:35Z</time>
   </trkpt>
   <trkpt lat="25.0266720" lon="121.4213180">
    <ele>14.7</ele>
    <time>2025-08-23T08:32:36Z</time>
   </trkpt>
   <trkpt lat="25.0266700" lon="121.4213020">
    <ele>14.7</ele>
    <time>2025-08-23T08:32:37Z</time>
   </trkpt>
   <trkpt lat="25.0266720" lon="121.4212860">
    <ele>14.7</ele>
    <time>2025-08-23T08:32:38Z</time>
   </trkpt>
   <trkpt lat="25.0267040" lon="121.4213050">
    <ele>14.7</ele>
    <time>2025-08-23T08:32:39Z</time>
   </trkpt>
   <trkpt lat="25.0267170" lon="121.4213110">
    <ele>14.7</ele>
    <time>2025-08-23T08:32:40Z</time>
   </trkpt>
   <trkpt lat="25.0267420" lon="121.4212910">
    <ele>14.7</ele>
    <time>2025-08-23T08:32:41Z</time>
   </trkpt>
   <trkpt lat="25.0267240" lon="121.4213210">
    <ele>14.7</ele>
    <time>2025-08-23T08:32:42Z</time>
   </trkpt>
   <trkpt lat="25.0267290" lon="121.4213110">
    <ele>14.7</ele>
    <time>2025-08-23T08:32:43Z</time>
   </trkpt>
   <trkpt lat="25.0267350" lon="121.4213130">
    <ele>14.7</ele>
    <time>2025-08-23T08:32:44Z</time>
   </trkpt>
   <trkpt lat="25.0267470" lon="121.4213230">
    <ele>14.7</ele>
    <time>2025-08-23T08:32:45Z</time>
   </trkpt>
   <trkpt lat="25.0267520" lon="121.4213390">
    <ele>14.6</ele>
    <time>2025-08-23T08:32:46Z</time>
   </trkpt>
   <trkpt lat="25.0267400" lon="121.4213850">
    <ele>14.6</ele>
    <time>2025-08-23T08:32:47Z</time>
   </trkpt>
   <trkpt lat="25.0267230" lon="121.4214250">
    <ele>14.6</ele>
    <time>2025-08-23T08:32:48Z</time>
   </trkpt>
   <trkpt lat="25.0267180" lon="121.4214520">
    <ele>14.6</ele>
    <time>2025-08-23T08:32:49Z</time>
   </trkpt>
   <trkpt lat="25.0267270" lon="121.4214560">
    <ele>14.6</ele>
    <time>2025-08-23T08:32:50Z</time>
   </trkpt>
   <trkpt lat="25.0267290" lon="121.4214600">
    <ele>14.6</ele>
    <time>2025-08-23T08:32:51Z</time>
   </trkpt>
   <trkpt lat="25.0267160" lon="121.4214560">
    <ele>14.6</ele>
    <time>2025-08-23T08:32:52Z</time>
   </trkpt>
   <trkpt lat="25.0267200" lon="121.4214500">
    <ele>14.6</ele>
    <time>2025-08-23T08:32:53Z</time>
   </trkpt>
   <trkpt lat="25.0267340" lon="121.4214460">
    <ele>14.6</ele>
    <time>2025-08-23T08:32:54Z</time>
   </trkpt>
   <trkpt lat="25.0267270" lon="121.4214560">
    <ele>14.6</ele>
    <time>2025-08-23T08:32:55Z</time>
   </trkpt>
   <trkpt lat="25.0267210" lon="121.4214590">
    <ele>14.5</ele>
    <time>2025-08-23T08:32:56Z</time>
   </trkpt>
   <trkpt lat="25.0267140" lon="121.4214680">
    <ele>14.5</ele>
    <time>2025-08-23T08:32:57Z</time>
   </trkpt>
   <trkpt lat="25.0267120" lon="121.4214670">
    <ele>14.5</ele>
    <time>2025-08-23T08:32:58Z</time>
   </trkpt>
   <trkpt lat="25.0267130" lon="121.4214490">
    <ele>14.5</ele>
    <time>2025-08-23T08:32:59Z</time>
   </trkpt>
   <trkpt lat="25.0267120" lon="121.4214500">
    <ele>14.5</ele>
    <time>2025-08-23T08:33:00Z</time>
   </trkpt>
   <trkpt lat="25.0267100" lon="121.4214520">
    <ele>14.5</ele>
    <time>2025-08-23T08:33:01Z</time>
   </trkpt>
   <trkpt lat="25.0267000" lon="121.4214820">
    <ele>14.5</ele>
    <time>2025-08-23T08:33:14Z</time>
   </trkpt>
   <trkpt lat="25.0267100" lon="121.4214870">
    <ele>14.5</ele>
    <time>2025-08-23T08:33:15Z</time>
   </trkpt>
   <trkpt lat="25.0267170" lon="121.4214900">
    <ele>14.5</ele>
    <time>2025-08-23T08:33:16Z</time>
   </trkpt>
   <trkpt lat="25.0267290" lon="121.4214920">
    <ele>14.5</ele>
    <time>2025-08-23T08:33:17Z</time>
   </trkpt>
   <trkpt lat="25.0267360" lon="121.4214950">
    <ele>14.5</ele>
    <time>2025-08-23T08:33:18Z</time>
   </trkpt>
   <trkpt lat="25.0267350" lon="121.4214930">
    <ele>14.5</ele>
    <time>2025-08-23T08:33:19Z</time>
   </trkpt>
   <trkpt lat="25.0267280" lon="121.4214880">
    <ele>14.5</ele>
    <time>2025-08-23T08:33:20Z</time>
   </trkpt>
   <trkpt lat="25.0267190" lon="121.4214920">
    <ele>14.5</ele>
    <time>2025-08-23T08:33:21Z</time>
   </trkpt>
   <trkpt lat="25.0267020" lon="121.4215010">
    <ele>14.5</ele>
    <time>2025-08-23T08:33:22Z</time>
   </trkpt>
   <trkpt lat="25.0266860" lon="121.4215020">
    <ele>14.5</ele>
    <time>2025-08-23T08:33:23Z</time>
   </trkpt>
   <trkpt lat="25.0266940" lon="121.4214990">
    <ele>14.5</ele>
    <time>2025-08-23T08:33:24Z</time>
   </trkpt>
   <trkpt lat="25.0267030" lon="121.4214880">
    <ele>14.5</ele>
    <time>2025-08-23T08:33:25Z</time>
   </trkpt>
   <trkpt lat="25.0267040" lon="121.4214800">
    <ele>14.4</ele>
    <time>2025-08-23T08:33:26Z</time>
   </trkpt>
   <trkpt lat="25.0266920" lon="121.4215520">
    <ele>14.4</ele>
    <time>2025-08-23T08:33:32Z</time>
   </trkpt>
   <trkpt lat="25.0266980" lon="121.4215660">
    <ele>14.4</ele>
    <time>2025-08-23T08:33:33Z</time>
   </trkpt>
   <trkpt lat="25.0266950" lon="121.4215780">
    <ele>14.4</ele>
    <time>2025-08-23T08:33:34Z</time>
   </trkpt>
   <trkpt lat="25.0266980" lon="121.4215840">
    <ele>14.4</ele>
    <time>2025-08-23T08:33:35Z</time>
   </trkpt>
   <trkpt lat="25.0267080" lon="121.4215960">
    <ele>14.4</ele>
    <time>2025-08-23T08:33:36Z</time>
   </trkpt>
   <trkpt lat="25.0267160" lon="121.4215950">
    <ele>14.4</ele>
    <time>2025-08-23T08:33:37Z</time>
   </trkpt>
   <trkpt lat="25.0267250" lon="121.4216020">
    <ele>14.4</ele>
    <time>2025-08-23T08:33:38Z</time>
   </trkpt>
   <trkpt lat="25.0267370" lon="121.4216100">
    <ele>14.4</ele>
    <time>2025-08-23T08:33:39Z</time>
   </trkpt>
   <trkpt lat="25.0267350" lon="121.4216120">
    <ele>14.4</ele>
    <time>2025-08-23T08:33:40Z</time>
   </trkpt>
   <trkpt lat="25.0267320" lon="121.4216150">
    <ele>14.4</ele>
    <time>2025-08-23T08:33:41Z</time>
   </trkpt>
   <trkpt lat="25.0267300" lon="121.4216180">
    <ele>14.4</ele>
    <time>2025-08-23T08:33:42Z</time>
   </trkpt>
   <trkpt lat="25.0267270" lon="121.4216210">
    <ele>14.4</ele>
    <time>2025-08-23T08:33:43Z</time>
   </trkpt>
   <trkpt lat="25.0267250" lon="121.4216240">
    <ele>14.4</ele>
    <time>2025-08-23T08:33:44Z</time>
   </trkpt>
   <trkpt lat="25.0267220" lon="121.4216280">
    <ele>14.4</ele>
    <time>2025-08-23T08:33:45Z</time>
   </trkpt>
   <trkpt lat="25.0267200" lon="121.4216310">
    <ele>14.4</ele>
    <time>2025-08-23T08:33:46Z</time>
   </trkpt>
   <trkpt lat="25.0267170" lon="121.4216340">
    <ele>14.4</ele>
    <time>2025-08-23T08:33:47Z</time>
   </trkpt>
   <trkpt lat="25.0267150" lon="121.4216370">
    <ele>14.4</ele>
    <time>2025-08-23T08:33:48Z</time>
   </trkpt>
   <trkpt lat="25.0267120" lon="121.4216400">
    <ele>14.4</ele>
    <time>2025-08-23T08:33:49Z</time>
   </trkpt>
   <trkpt lat="25.0267100" lon="121.4216430">
    <ele>14.4</ele>
    <time>2025-08-23T08:33:50Z</time>
   </trkpt>
   <trkpt lat="25.0267060" lon="121.4216440">
    <ele>14.4</ele>
    <time>2025-08-23T08:33:51Z</time>
   </trkpt>
   <trkpt lat="25.0266970" lon="121.4216460">
    <ele>14.4</ele>
    <time>2025-08-23T08:33:52Z</time>
   </trkpt>
   <trkpt lat="25.0266960" lon="121.4216370">
    <ele>14.4</ele>
    <time>2025-08-23T08:33:53Z</time>
   </trkpt>
   <trkpt lat="25.0267050" lon="121.4216400">
    <ele>14.4</ele>
    <time>2025-08-23T08:33:54Z</time>
   </trkpt>
   <trkpt lat="25.0267320" lon="121.4216610">
    <ele>14.3</ele>
    <time>2025-08-23T08:33:55Z</time>
   </trkpt>
   <trkpt lat="25.0267130" lon="121.4216760">
    <ele>14.3</ele>
    <time>2025-08-23T08:33:56Z</time>
   </trkpt>
   <trkpt lat="25.0267130" lon="121.4216760">
    <ele>14.3</ele>
    <time>2025-08-23T08:33:57Z</time>
   </trkpt>
   <trkpt lat="25.0267130" lon="121.4216760">
    <ele>14.3</ele>
    <time>2025-08-23T08:33:58Z</time>
   </trkpt>
   <trkpt lat="25.0267130" lon="121.4216760">
    <ele>14.3</ele>
    <time>2025-08-23T08:33:59Z</time>
   </trkpt>
   <trkpt lat="25.0267130" lon="121.4216760">
    <ele>14.3</ele>
    <time>2025-08-23T08:34:00Z</time>
   </trkpt>
   <trkpt lat="25.0267130" lon="121.4216760">
    <ele>14.3</ele>
    <time>2025-08-23T08:34:01Z</time>
   </trkpt>
   <trkpt lat="25.0267130" lon="121.4216760">
    <ele>14.3</ele>
    <time>2025-08-23T08:34:03Z</time>
   </trkpt>
   <trkpt lat="25.0267130" lon="121.4216760">
    <ele>14.3</ele>
    <time>2025-08-23T08:34:04Z</time>
   </trkpt>
   <trkpt lat="25.0267130" lon="121.4216760">
    <ele>14.3</ele>
    <time>2025-08-23T08:34:05Z</time>
   </trkpt>
   <trkpt lat="25.0267110" lon="121.4216680">
    <ele>14.3</ele>
    <time>2025-08-23T08:39:33Z</time>
   </trkpt>
   <trkpt lat="25.0267180" lon="121.4216850">
    <ele>14.3</ele>
    <time>2025-08-23T08:39:34Z</time>
   </trkpt>
   <trkpt lat="25.0267360" lon="121.4216840">
    <ele>14.3</ele>
    <time>2025-08-23T08:39:35Z</time>
   </trkpt>
   <trkpt lat="25.0267460" lon="121.4216980">
    <ele>14.3</ele>
    <time>2025-08-23T08:39:36Z</time>
   </trkpt>
   <trkpt lat="25.0267550" lon="121.4216980">
    <ele>14.3</ele>
    <time>2025-08-23T08:39:37Z</time>
   </trkpt>
   <trkpt lat="25.0267620" lon="121.4217020">
    <ele>14.3</ele>
    <time>2025-08-23T08:39:38Z</time>
   </trkpt>
   <trkpt lat="25.0267680" lon="121.4217050">
    <ele>14.3</ele>
    <time>2025-08-23T08:39:39Z</time>
   </trkpt>
   <trkpt lat="25.0267750" lon="121.4217090">
    <ele>14.3</ele>
    <time>2025-08-23T08:39:40Z</time>
   </trkpt>
   <trkpt lat="25.0267820" lon="121.4217120">
    <ele>14.3</ele>
    <time>2025-08-23T08:39:41Z</time>
   </trkpt>
   <trkpt lat="25.0268000" lon="121.4217240">
    <ele>14.3</ele>
    <time>2025-08-23T08:39:42Z</time>
   </trkpt>
   <trkpt lat="25.0268140" lon="121.4217240">
    <ele>14.3</ele>
    <time>2025-08-23T08:39:43Z</time>
   </trkpt>
   <trkpt lat="25.0268290" lon="121.4217230">
    <ele>14.3</ele>
    <time>2025-08-23T08:39:44Z</time>
   </trkpt>
   <trkpt lat="25.0268420" lon="121.4217340">
    <ele>14.3</ele>
    <time>2025-08-23T08:39:45Z</time>
   </trkpt>
   <trkpt lat="25.0268520" lon="121.4217400">
    <ele>14.3</ele>
    <time>2025-08-23T08:39:46Z</time>
   </trkpt>
   <trkpt lat="25.0268500" lon="121.4217420">
    <ele>14.4</ele>
    <time>2025-08-23T08:39:47Z</time>
   </trkpt>
   <trkpt lat="25.0268490" lon="121.4217420">
    <ele>14.4</ele>
    <time>2025-08-23T08:39:48Z</time>
   </trkpt>
   <trkpt lat="25.0268520" lon="121.4217520">
    <ele>14.4</ele>
    <time>2025-08-23T08:39:49Z</time>
   </trkpt>
   <trkpt lat="25.0268610" lon="121.4217580">
    <ele>14.4</ele>
    <time>2025-08-23T08:39:50Z</time>
   </trkpt>
   <trkpt lat="25.0268710" lon="121.4217530">
    <ele>14.4</ele>
    <time>2025-08-23T08:39:51Z</time>
   </trkpt>
   <trkpt lat="25.0268750" lon="121.4217400">
    <ele>14.5</ele>
    <time>2025-08-23T08:39:52Z</time>
   </trkpt>
   <trkpt lat="25.0268810" lon="121.4217310">
    <ele>14.5</ele>
    <time>2025-08-23T08:39:53Z</time>
   </trkpt>
   <trkpt lat="25.0268900" lon="121.4217190">
    <ele>14.5</ele>
    <time>2025-08-23T08:39:54Z</time>
   </trkpt>
   <trkpt lat="25.0269010" lon="121.4217050">
    <ele>14.6</ele>
    <time>2025-08-23T08:39:55Z</time>
   </trkpt>
   <trkpt lat="25.0269020" lon="121.4216970">
    <ele>14.6</ele>
    <time>2025-08-23T08:39:56Z</time>
   </trkpt>
   <trkpt lat="25.0269210" lon="121.4217050">
    <ele>14.7</ele>
    <time>2025-08-23T08:39:57Z</time>
   </trkpt>
   <trkpt lat="25.0269290" lon="121.4217110">
    <ele>14.7</ele>
    <time>2025-08-23T08:39:58Z</time>
   </trkpt>
   <trkpt lat="25.0269480" lon="121.4217130">
    <ele>14.7</ele>
    <time>2025-08-23T08:39:59Z</time>
   </trkpt>
   <trkpt lat="25.0269600" lon="121.4217140">
    <ele>14.8</ele>
    <time>2025-08-23T08:40:00Z</time>
   </trkpt>
   <trkpt lat="25.0269710" lon="121.4217140">
    <ele>14.8</ele>
    <time>2025-08-23T08:40:01Z</time>
   </trkpt>
   <trkpt lat="25.0269750" lon="121.4217200">
    <ele>14.8</ele>
    <time>2025-08-23T08:40:02Z</time>
   </trkpt>
   <trkpt lat="25.0269940" lon="121.4217090">
    <ele>14.9</ele>
    <time>2025-08-23T08:40:03Z</time>
   </trkpt>
   <trkpt lat="25.0270010" lon="121.4217190">
    <ele>14.9</ele>
    <time>2025-08-23T08:40:04Z</time>
   </trkpt>
   <trkpt lat="25.0270100" lon="121.4217210">
    <ele>14.9</ele>
    <time>2025-08-23T08:40:05Z</time>
   </trkpt>
   <trkpt lat="25.0270140" lon="121.4217180">
    <ele>15.0</ele>
    <time>2025-08-23T08:40:06Z</time>
   </trkpt>
   <trkpt lat="25.0270170" lon="121.4217160">
    <ele>15.0</ele>
    <time>2025-08-23T08:40:07Z</time>
   </trkpt>
   <trkpt lat="25.0270210" lon="121.4217140">
    <ele>15.0</ele>
    <time>2025-08-23T08:40:08Z</time>
   </trkpt>
   <trkpt lat="25.0270240" lon="121.4217120">
    <ele>15.0</ele>
    <time>2025-08-23T08:40:09Z</time>
   </trkpt>
   <trkpt lat="25.0270270" lon="121.4217090">
    <ele>15.0</ele>
    <time>2025-08-23T08:40:10Z</time>
   </trkpt>
   <trkpt lat="25.0270310" lon="121.4217070">
    <ele>15.0</ele>
    <time>2025-08-23T08:40:12Z</time>
   </trkpt>
   <trkpt lat="25.0270340" lon="121.4217050">
    <ele>15.0</ele>
    <time>2025-08-23T08:40:13Z</time>
   </trkpt>
   <trkpt lat="25.0270380" lon="121.4217020">
    <ele>15.0</ele>
    <time>2025-08-23T08:40:14Z</time>
   </trkpt>
   <trkpt lat="25.0270410" lon="121.4217000">
    <ele>15.1</ele>
    <time>2025-08-23T08:40:15Z</time>
   </trkpt>
   <trkpt lat="25.0270550" lon="121.4216780">
    <ele>15.1</ele>
    <time>2025-08-23T08:40:16Z</time>
   </trkpt>
   <trkpt lat="25.0270650" lon="121.4216620">
    <ele>15.2</ele>
    <time>2025-08-23T08:40:17Z</time>
   </trkpt>
   <trkpt lat="25.0270960" lon="121.4216530">
    <ele>15.3</ele>
    <time>2025-08-23T08:40:18Z</time>
   </trkpt>
   <trkpt lat="25.0271020" lon="121.4216500">
    <ele>15.3</ele>
    <time>2025-08-23T08:40:19Z</time>
   </trkpt>
   <trkpt lat="25.0271220" lon="121.4216510">
    <ele>15.4</ele>
    <time>2025-08-23T08:40:20Z</time>
   </trkpt>
   <trkpt lat="25.0271310" lon="121.4216510">
    <ele>15.4</ele>
    <time>2025-08-23T08:40:21Z</time>
   </trkpt>
   <trkpt lat="25.0271400" lon="121.4216500">
    <ele>15.4</ele>
    <time>2025-08-23T08:40:22Z</time>
   </trkpt>
   <trkpt lat="25.0271580" lon="121.4216360">
    <ele>15.4</ele>
    <time>2025-08-23T08:40:23Z</time>
   </trkpt>
   <trkpt lat="25.0271600" lon="121.4216400">
    <ele>15.5</ele>
    <time>2025-08-23T08:40:24Z</time>
   </trkpt>
   <trkpt lat="25.0271660" lon="121.4216400">
    <ele>15.5</ele>
    <time>2025-08-23T08:40:25Z</time>
   </trkpt>
   <trkpt lat="25.0271810" lon="121.4216360">
    <ele>15.5</ele>
    <time>2025-08-23T08:40:26Z</time>
   </trkpt>
   <trkpt lat="25.0271890" lon="121.4216270">
    <ele>15.5</ele>
    <time>2025-08-23T08:40:27Z</time>
   </trkpt>
   <trkpt lat="25.0271990" lon="121.4216270">
    <ele>15.6</ele>
    <time>2025-08-23T08:40:28Z</time>
   </trkpt>
   <trkpt lat="25.0272140" lon="121.4216040">
    <ele>15.6</ele>
    <time>2025-08-23T08:40:29Z</time>
   </trkpt>
   <trkpt lat="25.0272250" lon="121.4216000">
    <ele>15.6</ele>
    <time>2025-08-23T08:40:30Z</time>
   </trkpt>
   <trkpt lat="25.0272450" lon="121.4215660">
    <ele>16.2</ele>
    <time>2025-08-23T08:40:31Z</time>
   </trkpt>
   <trkpt lat="25.0272590" lon="121.4215350">
    <ele>16.3</ele>
    <time>2025-08-23T08:40:32Z</time>
   </trkpt>
   <trkpt lat="25.0272740" lon="121.4215040">
    <ele>16.5</ele>
    <time>2025-08-23T08:40:33Z</time>
   </trkpt>
   <trkpt lat="25.0272880" lon="121.4214730">
    <ele>16.6</ele>
    <time>2025-08-23T08:40:34Z</time>
   </trkpt>
   <trkpt lat="25.0273030" lon="121.4214410">
    <ele>16.8</ele>
    <time>2025-08-23T08:40:35Z</time>
   </trkpt>
   <trkpt lat="25.0273170" lon="121.4214100">
    <ele>16.9</ele>
    <time>2025-08-23T08:40:36Z</time>
   </trkpt>
   <trkpt lat="25.0273320" lon="121.4213790">
    <ele>17.1</ele>
    <time>2025-08-23T08:40:37Z</time>
   </trkpt>
   <trkpt lat="25.0273460" lon="121.4213480">
    <ele>17.2</ele>
    <time>2025-08-23T08:46:15Z</time>
   </trkpt>
   <trkpt lat="25.0273610" lon="121.4213170">
    <ele>17.3</ele>
    <time>2025-08-23T08:46:16Z</time>
   </trkpt>
   <trkpt lat="25.0273220" lon="121.4213270">
    <ele>17.5</ele>
    <time>2025-08-23T08:46:17Z</time>
   </trkpt>
   <trkpt lat="25.0273460" lon="121.4213080">
    <ele>17.7</ele>
    <time>2025-08-23T08:46:18Z</time>
   </trkpt>
   <trkpt lat="25.0273540" lon="121.4213060">
    <ele>17.7</ele>
    <time>2025-08-23T08:46:19Z</time>
   </trkpt>
   <trkpt lat="25.0273630" lon="121.4213250">
    <ele>17.8</ele>
    <time>2025-08-23T08:46:20Z</time>
   </trkpt>
   <trkpt lat="25.0273680" lon="121.4213250">
    <ele>17.8</ele>
    <time>2025-08-23T08:46:21Z</time>
   </trkpt>
   <trkpt lat="25.0273720" lon="121.4213250">
    <ele>17.8</ele>
    <time>2025-08-23T08:46:22Z</time>
   </trkpt>
   <trkpt lat="25.0273620" lon="121.4213350">
    <ele>17.9</ele>
    <time>2025-08-23T08:46:23Z</time>
   </trkpt>
   <trkpt lat="25.0273780" lon="121.4213300">
    <ele>17.9</ele>
    <time>2025-08-23T08:46:24Z</time>
   </trkpt>
   <trkpt lat="25.0273880" lon="121.4213180">
    <ele>18.0</ele>
    <time>2025-08-23T08:46:25Z</time>
   </trkpt>
   <trkpt lat="25.0274130" lon="121.4213320">
    <ele>18.1</ele>
    <time>2025-08-23T08:46:26Z</time>
   </trkpt>
   <trkpt lat="25.0274160" lon="121.4213390">
    <ele>18.1</ele>
    <time>2025-08-23T08:46:27Z</time>
   </trkpt>
   <trkpt lat="25.0274120" lon="121.4213400">
    <ele>18.2</ele>
    <time>2025-08-23T08:46:28Z</time>
   </trkpt>
   <trkpt lat="25.0274080" lon="121.4213420">
    <ele>18.2</ele>
    <time>2025-08-23T08:46:29Z</time>
   </trkpt>
   <trkpt lat="25.0274030" lon="121.4213430">
    <ele>18.2</ele>
    <time>2025-08-23T08:46:30Z</time>
   </trkpt>
   <trkpt lat="25.0273990" lon="121.4213450">
    <ele>18.2</ele>
    <time>2025-08-23T08:46:31Z</time>
   </trkpt>
   <trkpt lat="25.0273950" lon="121.4213460">
    <ele>18.2</ele>
    <time>2025-08-23T08:46:32Z</time>
   </trkpt>
   <trkpt lat="25.0273910" lon="121.4213480">
    <ele>18.3</ele>
    <time>2025-08-23T08:46:33Z</time>
   </trkpt>
   <trkpt lat="25.0273870" lon="121.4213490">
    <ele>18.3</ele>
    <time>2025-08-23T08:46:34Z</time>
   </trkpt>
   <trkpt lat="25.0273830" lon="121.4213510">
    <ele>18.3</ele>
    <time>2025-08-23T08:46:35Z</time>
   </trkpt>
   <trkpt lat="25.0273780" lon="121.4213520">
    <ele>18.3</ele>
    <time>2025-08-23T08:46:36Z</time>
   </trkpt>
   <trkpt lat="25.0273740" lon="121.4213540">
    <ele>18.3</ele>
    <time>2025-08-23T08:46:37Z</time>
   </trkpt>
   <trkpt lat="25.0273700" lon="121.4213550">
    <ele>18.3</ele>
    <time>2025-08-23T08:46:38Z</time>
   </trkpt>
   <trkpt lat="25.0272530" lon="121.4213760">
    <ele>18.8</ele>
    <time>2025-08-23T08:50:16Z</time>
   </trkpt>
   <trkpt lat="25.0272670" lon="121.4213590">
    <ele>18.9</ele>
    <time>2025-08-23T08:50:17Z</time>
   </trkpt>
   <trkpt lat="25.0272880" lon="121.4213210">
    <ele>19.0</ele>
    <time>2025-08-23T08:50:18Z</time>
   </trkpt>
   <trkpt lat="25.0273110" lon="121.4213230">
    <ele>19.1</ele>
    <time>2025-08-23T08:50:19Z</time>
   </trkpt>
   <trkpt lat="25.0273230" lon="121.4213280">
    <ele>19.2</ele>
    <time>2025-08-23T08:50:20Z</time>
   </trkpt>
   <trkpt lat="25.0273350" lon="121.4213340">
    <ele>19.2</ele>
    <time>2025-08-23T08:50:21Z</time>
   </trkpt>
   <trkpt lat="25.0273460" lon="121.4213470">
    <ele>19.3</ele>
    <time>2025-08-23T08:50:22Z</time>
   </trkpt>
   <trkpt lat="25.0273600" lon="121.4213190">
    <ele>19.4</ele>
    <time>2025-08-23T08:50:23Z</time>
   </trkpt>
   <trkpt lat="25.0273540" lon="121.4213150">
    <ele>19.4</ele>
    <time>2025-08-23T08:50:24Z</time>
   </trkpt>
   <trkpt lat="25.0273690" lon="121.4213160">
    <ele>19.5</ele>
    <time>2025-08-23T08:50:25Z</time>
   </trkpt>
   <trkpt lat="25.0273830" lon="121.4213160">
    <ele>19.5</ele>
    <time>2025-08-23T08:50:26Z</time>
   </trkpt>
   <trkpt lat="25.0273980" lon="121.4213170">
    <ele>19.6</ele>
    <time>2025-08-23T08:50:27Z</time>
   </trkpt>
   <trkpt lat="25.0274120" lon="121.4213180">
    <ele>19.7</ele>
    <time>2025-08-23T08:50:28Z</time>
   </trkpt>
   <trkpt lat="25.0274160" lon="121.4213120">
    <ele>19.7</ele>
    <time>2025-08-23T08:50:29Z</time>
   </trkpt>
   <trkpt lat="25.0274220" lon="121.4213080">
    <ele>19.7</ele>
    <time>2025-08-23T08:50:30Z</time>
   </trkpt>
   <trkpt lat="25.0274290" lon="121.4213050">
    <ele>19.7</ele>
    <time>2025-08-23T08:50:31Z</time>
   </trkpt>
   <trkpt lat="25.0274350" lon="121.4213010">
    <ele>19.8</ele>
    <time>2025-08-23T08:50:32Z</time>
   </trkpt>
   <trkpt lat="25.0274410" lon="121.4212970">
    <ele>19.8</ele>
    <time>2025-08-23T08:50:33Z</time>
   </trkpt>
   <trkpt lat="25.0274470" lon="121.4212930">
    <ele>19.8</ele>
    <time>2025-08-23T08:50:34Z</time>
   </trkpt>
   <trkpt lat="25.0274580" lon="121.4212860">
    <ele>19.9</ele>
    <time>2025-08-23T08:50:35Z</time>
   </trkpt>
   <trkpt lat="25.0274570" lon="121.4212760">
    <ele>19.9</ele>
    <time>2025-08-23T08:50:36Z</time>
   </trkpt>
   <trkpt lat="25.0274600" lon="121.4212650">
    <ele>19.9</ele>
    <time>2025-08-23T08:50:37Z</time>
   </trkpt>
   <trkpt lat="25.0274740" lon="121.4212530">
    <ele>20.0</ele>
    <time>2025-08-23T08:50:38Z</time>
   </trkpt>
   <trkpt lat="25.0274830" lon="121.4212460">
    <ele>20.0</ele>
    <time>2025-08-23T08:50:39Z</time>
   </trkpt>
   <trkpt lat="25.0274910" lon="121.4212380">
    <ele>20.1</ele>
    <time>2025-08-23T08:50:40Z</time>
   </trkpt>
   <trkpt lat="25.0274980" lon="121.4212410">
    <ele>20.1</ele>
    <time>2025-08-23T08:50:41Z</time>
   </trkpt>
   <trkpt lat="25.0274980" lon="121.4212350">
    <ele>20.1</ele>
    <time>2025-08-23T08:50:42Z</time>
   </trkpt>
   <trkpt lat="25.0275090" lon="121.4212270">
    <ele>20.2</ele>
    <time>2025-08-23T08:50:43Z</time>
   </trkpt>
   <trkpt lat="25.0275140" lon="121.4212160">
    <ele>20.2</ele>
    <time>2025-08-23T08:50:44Z</time>
   </trkpt>
   <trkpt lat="25.0275220" lon="121.4212110">
    <ele>20.3</ele>
    <time>2025-08-23T08:50:45Z</time>
   </trkpt>
   <trkpt lat="25.0274860" lon="121.4212340">
    <ele>20.4</ele>
    <time>2025-08-23T08:50:46Z</time>
   </trkpt>
   <trkpt lat="25.0274860" lon="121.4212340">
    <ele>20.4</ele>
    <time>2025-08-23T08:50:47Z</time>
   </trkpt>
   <trkpt lat="25.0274880" lon="121.4212320">
    <ele>20.5</ele>
    <time>2025-08-23T08:50:48Z</time>
   </trkpt>
   <trkpt lat="25.0274940" lon="121.4212330">
    <ele>20.5</ele>
    <time>2025-08-23T08:50:49Z</time>
   </trkpt>
   <trkpt lat="25.0275010" lon="121.4212360">
    <ele>20.5</ele>
    <time>2025-08-23T08:50:50Z</time>
   </trkpt>
   <trkpt lat="25.0275070" lon="121.4212360">
    <ele>20.5</ele>
    <time>2025-08-23T08:50:51Z</time>
   </trkpt>
   <trkpt lat="25.0274730" lon="121.4212360">
    <ele>20.3</ele>
    <time>2025-08-23T08:50:52Z</time>
   </trkpt>
   <trkpt lat="25.0274700" lon="121.4212310">
    <ele>20.3</ele>
    <time>2025-08-23T08:50:53Z</time>
   </trkpt>
   <trkpt lat="25.0274700" lon="121.4212310">
    <ele>20.3</ele>
    <time>2025-08-23T08:50:54Z</time>
   </trkpt>
   <trkpt lat="25.0273330" lon="121.4211050">
    <ele>19.4</ele>
    <time>2025-08-23T08:53:39Z</time>
   </trkpt>
   <trkpt lat="25.0273330" lon="121.4211440">
    <ele>19.2</ele>
    <time>2025-08-23T08:53:41Z</time>
   </trkpt>
   <trkpt lat="25.0273250" lon="121.4211560">
    <ele>19.1</ele>
    <time>2025-08-23T08:53:42Z</time>
   </trkpt>
   <trkpt lat="25.0273570" lon="121.4211670">
    <ele>18.9</ele>
    <time>2025-08-23T08:53:43Z</time>
   </trkpt>
   <trkpt lat="25.0273470" lon="121.4211700">
    <ele>18.9</ele>
    <time>2025-08-23T08:53:44Z</time>
   </trkpt>
   <trkpt lat="25.0273510" lon="121.4211770">
    <ele>18.8</ele>
    <time>2025-08-23T08:53:45Z</time>
   </trkpt>
   <trkpt lat="25.0273490" lon="121.4211830">
    <ele>18.8</ele>
    <time>2025-08-23T08:53:46Z</time>
   </trkpt>
   <trkpt lat="25.0273500" lon="121.4211960">
    <ele>18.7</ele>
    <time>2025-08-23T08:53:47Z</time>
   </trkpt>
   <trkpt lat="25.0273750" lon="121.4212110">
    <ele>18.6</ele>
    <time>2025-08-23T08:53:48Z</time>
   </trkpt>
   <trkpt lat="25.0273610" lon="121.4212290">
    <ele>18.5</ele>
    <time>2025-08-23T08:53:49Z</time>
   </trkpt>
   <trkpt lat="25.0273530" lon="121.4212280">
    <ele>18.4</ele>
    <time>2025-08-23T08:53:50Z</time>
   </trkpt>
   <trkpt lat="25.0273610" lon="121.4212350">
    <ele>18.4</ele>
    <time>2025-08-23T08:53:51Z</time>
   </trkpt>
   <trkpt lat="25.0273550" lon="121.4212380">
    <ele>18.3</ele>
    <time>2025-08-23T08:53:52Z</time>
   </trkpt>
   <trkpt lat="25.0273520" lon="121.4212340">
    <ele>18.3</ele>
    <time>2025-08-23T08:53:53Z</time>
   </trkpt>
   <trkpt lat="25.0273550" lon="121.4212280">
    <ele>18.3</ele>
    <time>2025-08-23T08:53:54Z</time>
   </trkpt>
   <trkpt lat="25.0273430" lon="121.4212540">
    <ele>18.1</ele>
    <time>2025-08-23T08:53:55Z</time>
   </trkpt>
   <trkpt lat="25.0273460" lon="121.4212610">
    <ele>18.1</ele>
    <time>2025-08-23T08:53:56Z</time>
   </trkpt>
   <trkpt lat="25.0273380" lon="121.4212700">
    <ele>18.0</ele>
    <time>2025-08-23T08:53:57Z</time>
   </trkpt>
   <trkpt lat="25.0273420" lon="121.4212710">
    <ele>18.0</ele>
    <time>2025-08-23T08:53:58Z</time>
   </trkpt>
   <trkpt lat="25.0273360" lon="121.4212800">
    <ele>17.9</ele>
    <time>2025-08-23T08:53:59Z</time>
   </trkpt>
   <trkpt lat="25.0273400" lon="121.4213000">
    <ele>17.8</ele>
    <time>2025-08-23T08:54:00Z</time>
   </trkpt>
   <trkpt lat="25.0273390" lon="121.4213090">
    <ele>17.8</ele>
    <time>2025-08-23T08:54:01Z</time>
   </trkpt>
   <trkpt lat="25.0273400" lon="121.4213150">
    <ele>17.8</ele>
    <time>2025-08-23T08:54:02Z</time>
   </trkpt>
   <trkpt lat="25.0273330" lon="121.4213070">
    <ele>17.7</ele>
    <time>2025-08-23T08:54:03Z</time>
   </trkpt>
   <trkpt lat="25.0273220" lon="121.4213140">
    <ele>17.6</ele>
    <time>2025-08-23T08:54:04Z</time>
   </trkpt>
   <trkpt lat="25.0273180" lon="121.4213230">
    <ele>17.6</ele>
    <time>2025-08-23T08:54:05Z</time>
   </trkpt>
   <trkpt lat="25.0273150" lon="121.4213350">
    <ele>17.5</ele>
    <time>2025-08-23T08:54:06Z</time>
   </trkpt>
   <trkpt lat="25.0273140" lon="121.4213470">
    <ele>17.4</ele>
    <time>2025-08-23T08:54:07Z</time>
   </trkpt>
   <trkpt lat="25.0273120" lon="121.4213580">
    <ele>17.4</ele>
    <time>2025-08-23T08:54:08Z</time>
   </trkpt>
   <trkpt lat="25.0273110" lon="121.4213690">
    <ele>17.3</ele>
    <time>2025-08-23T08:54:09Z</time>
   </trkpt>
   <trkpt lat="25.0273050" lon="121.4213930">
    <ele>17.2</ele>
    <time>2025-08-23T08:54:10Z</time>
   </trkpt>
   <trkpt lat="25.0273030" lon="121.4214040">
    <ele>17.1</ele>
    <time>2025-08-23T08:54:11Z</time>
   </trkpt>
   <trkpt lat="25.0272850" lon="121.4214190">
    <ele>17.0</ele>
    <time>2025-08-23T08:54:12Z</time>
   </trkpt>
   <trkpt lat="25.0272770" lon="121.4214210">
    <ele>16.9</ele>
    <time>2025-08-23T08:54:13Z</time>
   </trkpt>
   <trkpt lat="25.0272680" lon="121.4214220">
    <ele>16.9</ele>
    <time>2025-08-23T08:54:14Z</time>
   </trkpt>
   <trkpt lat="25.0272620" lon="121.4214240">
    <ele>16.8</ele>
    <time>2025-08-23T08:54:15Z</time>
   </trkpt>
   <trkpt lat="25.0272440" lon="121.4214320">
    <ele>16.7</ele>
    <time>2025-08-23T08:54:16Z</time>
   </trkpt>
   <trkpt lat="25.0272330" lon="121.4214340">
    <ele>16.6</ele>
    <time>2025-08-23T08:54:17Z</time>
   </trkpt>
   <trkpt lat="25.0272200" lon="121.4214420">
    <ele>16.5</ele>
    <time>2025-08-23T08:54:18Z</time>
   </trkpt>
   <trkpt lat="25.0272110" lon="121.4214400">
    <ele>16.5</ele>
    <time>2025-08-23T08:54:19Z</time>
   </trkpt>
   <trkpt lat="25.0271990" lon="121.4214350">
    <ele>16.4</ele>
    <time>2025-08-23T08:54:20Z</time>
   </trkpt>
   <trkpt lat="25.0271930" lon="121.4214360">
    <ele>16.3</ele>
    <time>2025-08-23T08:54:21Z</time>
   </trkpt>
   <trkpt lat="25.0271860" lon="121.4214420">
    <ele>16.3</ele>
    <time>2025-08-23T08:54:22Z</time>
   </trkpt>
   <trkpt lat="25.0271820" lon="121.4214490">
    <ele>16.2</ele>
    <time>2025-08-23T08:54:23Z</time>
   </trkpt>
   <trkpt lat="25.0271760" lon="121.4214470">
    <ele>16.2</ele>
    <time>2025-08-23T08:54:24Z</time>
   </trkpt>
   <trkpt lat="25.0271710" lon="121.4214560">
    <ele>16.1</ele>
    <time>2025-08-23T08:54:25Z</time>
   </trkpt>
   <trkpt lat="25.0271590" lon="121.4214810">
    <ele>16.0</ele>
    <time>2025-08-23T08:54:26Z</time>
   </trkpt>
   <trkpt lat="25.0271580" lon="121.4214900">
    <ele>15.9</ele>
    <time>2025-08-23T08:54:27Z</time>
   </trkpt>
   <trkpt lat="25.0271540" lon="121.4214940">
    <ele>15.9</ele>
    <time>2025-08-23T08:54:28Z</time>
   </trkpt>
   <trkpt lat="25.0271460" lon="121.4215060">
    <ele>15.8</ele>
    <time>2025-08-23T08:54:29Z</time>
   </trkpt>
   <trkpt lat="25.0271470" lon="121.4215120">
    <ele>15.8</ele>
    <time>2025-08-23T08:54:30Z</time>
   </trkpt>
   <trkpt lat="25.0271450" lon="121.4215090">
    <ele>15.7</ele>
    <time>2025-08-23T08:54:31Z</time>
   </trkpt>
   <trkpt lat="25.0271450" lon="121.4215170">
    <ele>15.7</ele>
    <time>2025-08-23T08:54:32Z</time>
   </trkpt>
   <trkpt lat="25.0271520" lon="121.4215570">
    <ele>15.6</ele>
    <time>2025-08-23T08:54:33Z</time>
   </trkpt>
   <trkpt lat="25.0271450" lon="121.4215730">
    <ele>15.5</ele>
    <time>2025-08-23T08:54:34Z</time>
   </trkpt>
   <trkpt lat="25.0271450" lon="121.4215880">
    <ele>15.5</ele>
    <time>2025-08-23T08:54:35Z</time>
   </trkpt>
   <trkpt lat="25.0271310" lon="121.4216210">
    <ele>15.4</ele>
    <time>2025-08-23T08:54:36Z</time>
   </trkpt>
   <trkpt lat="25.0271270" lon="121.4216290">
    <ele>15.4</ele>
    <time>2025-08-23T08:54:37Z</time>
   </trkpt>
   <trkpt lat="25.0271090" lon="121.4216420">
    <ele>15.4</ele>
    <time>2025-08-23T08:54:38Z</time>
   </trkpt>
   <trkpt lat="25.0271020" lon="121.4216480">
    <ele>15.3</ele>
    <time>2025-08-23T08:54:39Z</time>
   </trkpt>
   <trkpt lat="25.0270950" lon="121.4216550">
    <ele>15.3</ele>
    <time>2025-08-23T08:54:40Z</time>
   </trkpt>
   <trkpt lat="25.0270880" lon="121.4216610">
    <ele>15.3</ele>
    <time>2025-08-23T08:54:41Z</time>
   </trkpt>
   <trkpt lat="25.0270760" lon="121.4216650">
    <ele>15.2</ele>
    <time>2025-08-23T08:54:42Z</time>
   </trkpt>
   <trkpt lat="25.0270660" lon="121.4216790">
    <ele>15.2</ele>
    <time>2025-08-23T08:54:43Z</time>
   </trkpt>
   <trkpt lat="25.0270580" lon="121.4216850">
    <ele>15.2</ele>
    <time>2025-08-23T08:54:44Z</time>
   </trkpt>
   <trkpt lat="25.0270560" lon="121.4217040">
    <ele>15.1</ele>
    <time>2025-08-23T08:54:45Z</time>
   </trkpt>
   <trkpt lat="25.0270490" lon="121.4217160">
    <ele>15.1</ele>
    <time>2025-08-23T08:54:47Z</time>
   </trkpt>
   <trkpt lat="25.0270430" lon="121.4217130">
    <ele>15.1</ele>
    <time>2025-08-23T08:54:48Z</time>
   </trkpt>
   <trkpt lat="25.0270330" lon="121.4217290">
    <ele>15.0</ele>
    <time>2025-08-23T08:54:49Z</time>
   </trkpt>
  </trkseg>
 </trk>
</gpx>
